<?xml version='1.0' encoding='UTF-8'?>
<gpx version="1.1" creator="https://www.komoot.de" xmlns="http://www.topografix.com/GPX/1/1" xmlns:xsi="http://www.w3.org/2001/XMLSchema-instance" xsi:schemaLocation="http://www.topografix.com/GPX/1/1 http://www.topografix.com/GPX/1/1/gpx.xsd">
  <metadata>
    <name>Kok tobe</name>
    <author>
      <link href="https://www.komoot.de">
        <text>komoot</text>
        <type>text/html</type>
      </link>
    </author>
  </metadata>
  <trk>
    <name>Kok tobe</name>
    <trkseg>
      <trkpt lat="43.224465" lon="76.974077">
        <ele>1006.824881</ele>
        <time>2025-04-09T03:43:18.065Z</time>
      </trkpt>
      <trkpt lat="43.224487" lon="76.974093">
        <ele>1006.824881</ele>
        <time>2025-04-09T03:43:43.000Z</time>
      </trkpt>
      <trkpt lat="43.224509" lon="76.974109">
        <ele>1006.824881</ele>
        <time>2025-04-09T03:43:44.000Z</time>
      </trkpt>
      <trkpt lat="43.224531" lon="76.974125">
        <ele>1006.824881</ele>
        <time>2025-04-09T03:43:45.000Z</time>
      </trkpt>
      <trkpt lat="43.224552" lon="76.974143">
        <ele>1006.824881</ele>
        <time>2025-04-09T03:43:46.000Z</time>
      </trkpt>
      <trkpt lat="43.224572" lon="76.974161">
        <ele>1006.824881</ele>
        <time>2025-04-09T03:43:47.000Z</time>
      </trkpt>
      <trkpt lat="43.224591" lon="76.974181">
        <ele>1006.824881</ele>
        <time>2025-04-09T03:43:48.000Z</time>
      </trkpt>
      <trkpt lat="43.224610" lon="76.974202">
        <ele>1006.824881</ele>
        <time>2025-04-09T03:43:49.000Z</time>
      </trkpt>
      <trkpt lat="43.224628" lon="76.974224">
        <ele>1006.824881</ele>
        <time>2025-04-09T03:43:50.000Z</time>
      </trkpt>
      <trkpt lat="43.224646" lon="76.974245">
        <ele>1006.824881</ele>
        <time>2025-04-09T03:43:51.000Z</time>
      </trkpt>
      <trkpt lat="43.224665" lon="76.974266">
        <ele>1006.824881</ele>
        <time>2025-04-09T03:43:52.000Z</time>
      </trkpt>
      <trkpt lat="43.224684" lon="76.974287">
        <ele>1006.824881</ele>
        <time>2025-04-09T03:43:53.000Z</time>
      </trkpt>
      <trkpt lat="43.224702" lon="76.974307">
        <ele>1006.824881</ele>
        <time>2025-04-09T03:43:54.000Z</time>
      </trkpt>
      <trkpt lat="43.224720" lon="76.974327">
        <ele>1006.824881</ele>
        <time>2025-04-09T03:43:55.000Z</time>
      </trkpt>
      <trkpt lat="43.224737" lon="76.974346">
        <ele>1006.824881</ele>
        <time>2025-04-09T03:43:56.000Z</time>
      </trkpt>
      <trkpt lat="43.224753" lon="76.974364">
        <ele>1006.824881</ele>
        <time>2025-04-09T03:43:57.000Z</time>
      </trkpt>
      <trkpt lat="43.224768" lon="76.974383">
        <ele>1006.824881</ele>
        <time>2025-04-09T03:43:58.000Z</time>
      </trkpt>
      <trkpt lat="43.224783" lon="76.974401">
        <ele>1006.824881</ele>
        <time>2025-04-09T03:43:58.999Z</time>
      </trkpt>
      <trkpt lat="43.224798" lon="76.974418">
        <ele>1006.824881</ele>
        <time>2025-04-09T03:43:59.999Z</time>
      </trkpt>
      <trkpt lat="43.224813" lon="76.974433">
        <ele>1006.824881</ele>
        <time>2025-04-09T03:44:00.999Z</time>
      </trkpt>
      <trkpt lat="43.224829" lon="76.974446">
        <ele>1006.824881</ele>
        <time>2025-04-09T03:44:01.999Z</time>
      </trkpt>
      <trkpt lat="43.224845" lon="76.974457">
        <ele>1006.824881</ele>
        <time>2025-04-09T03:44:02.999Z</time>
      </trkpt>
      <trkpt lat="43.224862" lon="76.974463">
        <ele>1006.824881</ele>
        <time>2025-04-09T03:44:03.999Z</time>
      </trkpt>
      <trkpt lat="43.224878" lon="76.974466">
        <ele>1006.824881</ele>
        <time>2025-04-09T03:44:04.999Z</time>
      </trkpt>
      <trkpt lat="43.224895" lon="76.974464">
        <ele>1006.824881</ele>
        <time>2025-04-09T03:44:05.999Z</time>
      </trkpt>
      <trkpt lat="43.224911" lon="76.974458">
        <ele>1006.824881</ele>
        <time>2025-04-09T03:44:06.999Z</time>
      </trkpt>
      <trkpt lat="43.224927" lon="76.974450">
        <ele>1006.824881</ele>
        <time>2025-04-09T03:44:07.999Z</time>
      </trkpt>
      <trkpt lat="43.224944" lon="76.974439">
        <ele>1006.824881</ele>
        <time>2025-04-09T03:44:08.999Z</time>
      </trkpt>
      <trkpt lat="43.224961" lon="76.974428">
        <ele>1006.824881</ele>
        <time>2025-04-09T03:44:09.999Z</time>
      </trkpt>
      <trkpt lat="43.224979" lon="76.974416">
        <ele>1006.824881</ele>
        <time>2025-04-09T03:44:10.999Z</time>
      </trkpt>
      <trkpt lat="43.224997" lon="76.974404">
        <ele>1006.824881</ele>
        <time>2025-04-09T03:44:11.999Z</time>
      </trkpt>
      <trkpt lat="43.225016" lon="76.974392">
        <ele>1006.824881</ele>
        <time>2025-04-09T03:44:12.999Z</time>
      </trkpt>
      <trkpt lat="43.225034" lon="76.974381">
        <ele>1006.824881</ele>
        <time>2025-04-09T03:44:13.999Z</time>
      </trkpt>
      <trkpt lat="43.225054" lon="76.974371">
        <ele>1006.824881</ele>
        <time>2025-04-09T03:44:14.999Z</time>
      </trkpt>
      <trkpt lat="43.225073" lon="76.974362">
        <ele>1006.824881</ele>
        <time>2025-04-09T03:44:15.999Z</time>
      </trkpt>
      <trkpt lat="43.225093" lon="76.974353">
        <ele>1006.824881</ele>
        <time>2025-04-09T03:44:16.999Z</time>
      </trkpt>
      <trkpt lat="43.225113" lon="76.974345">
        <ele>1006.824881</ele>
        <time>2025-04-09T03:44:17.999Z</time>
      </trkpt>
      <trkpt lat="43.225133" lon="76.974337">
        <ele>1006.824881</ele>
        <time>2025-04-09T03:44:18.999Z</time>
      </trkpt>
      <trkpt lat="43.225153" lon="76.974331">
        <ele>1006.824881</ele>
        <time>2025-04-09T03:44:19.999Z</time>
      </trkpt>
      <trkpt lat="43.225172" lon="76.974327">
        <ele>1006.824881</ele>
        <time>2025-04-09T03:44:20.999Z</time>
      </trkpt>
      <trkpt lat="43.225190" lon="76.974325">
        <ele>1006.824881</ele>
        <time>2025-04-09T03:44:21.999Z</time>
      </trkpt>
      <trkpt lat="43.225207" lon="76.974326">
        <ele>1006.824881</ele>
        <time>2025-04-09T03:44:22.999Z</time>
      </trkpt>
      <trkpt lat="43.225224" lon="76.974330">
        <ele>1006.824881</ele>
        <time>2025-04-09T03:44:23.999Z</time>
      </trkpt>
      <trkpt lat="43.225240" lon="76.974336">
        <ele>1006.824881</ele>
        <time>2025-04-09T03:44:24.999Z</time>
      </trkpt>
      <trkpt lat="43.225256" lon="76.974345">
        <ele>1006.882107</ele>
        <time>2025-04-09T03:44:25.999Z</time>
      </trkpt>
      <trkpt lat="43.225273" lon="76.974357">
        <ele>1007.088828</ele>
        <time>2025-04-09T03:44:26.999Z</time>
      </trkpt>
      <trkpt lat="43.225290" lon="76.974371">
        <ele>1007.303215</ele>
        <time>2025-04-09T03:44:27.999Z</time>
      </trkpt>
      <trkpt lat="43.225309" lon="76.974387">
        <ele>1007.544268</ele>
        <time>2025-04-09T03:44:28.999Z</time>
      </trkpt>
      <trkpt lat="43.225329" lon="76.974405">
        <ele>1007.802895</ele>
        <time>2025-04-09T03:44:29.999Z</time>
      </trkpt>
      <trkpt lat="43.225352" lon="76.974424">
        <ele>1008.093188</ele>
        <time>2025-04-09T03:44:30.999Z</time>
      </trkpt>
      <trkpt lat="43.225502" lon="76.974495">
        <ele>1009.808978</ele>
        <time>2025-04-09T03:44:36.464Z</time>
      </trkpt>
      <trkpt lat="43.225519" lon="76.974499">
        <ele>1009.995490</ele>
        <time>2025-04-09T03:44:36.999Z</time>
      </trkpt>
      <trkpt lat="43.225548" lon="76.974503">
        <ele>1010.310661</ele>
        <time>2025-04-09T03:44:37.999Z</time>
      </trkpt>
      <trkpt lat="43.225576" lon="76.974504">
        <ele>1010.613541</ele>
        <time>2025-04-09T03:44:38.999Z</time>
      </trkpt>
      <trkpt lat="43.225601" lon="76.974501">
        <ele>1010.884910</ele>
        <time>2025-04-09T03:44:39.999Z</time>
      </trkpt>
      <trkpt lat="43.225625" lon="76.974493">
        <ele>1011.151980</ele>
        <time>2025-04-09T03:44:40.999Z</time>
      </trkpt>
      <trkpt lat="43.225646" lon="76.974481">
        <ele>1011.397962</ele>
        <time>2025-04-09T03:44:41.999Z</time>
      </trkpt>
      <trkpt lat="43.225664" lon="76.974464">
        <ele>1011.634242</ele>
        <time>2025-04-09T03:44:42.999Z</time>
      </trkpt>
      <trkpt lat="43.225679" lon="76.974443">
        <ele>1011.865951</ele>
        <time>2025-04-09T03:44:43.999Z</time>
      </trkpt>
      <trkpt lat="43.225691" lon="76.974419">
        <ele>1012.095295</ele>
        <time>2025-04-09T03:44:44.999Z</time>
      </trkpt>
      <trkpt lat="43.225700" lon="76.974392">
        <ele>1012.329242</ele>
        <time>2025-04-09T03:44:45.999Z</time>
      </trkpt>
      <trkpt lat="43.225707" lon="76.974364">
        <ele>1012.562489</ele>
        <time>2025-04-09T03:44:46.999Z</time>
      </trkpt>
      <trkpt lat="43.225711" lon="76.974335">
        <ele>1012.795049</ele>
        <time>2025-04-09T03:44:47.999Z</time>
      </trkpt>
      <trkpt lat="43.225714" lon="76.974305">
        <ele>1013.033646</ele>
        <time>2025-04-09T03:44:48.999Z</time>
      </trkpt>
      <trkpt lat="43.225716" lon="76.974274">
        <ele>1013.278862</ele>
        <time>2025-04-09T03:44:49.999Z</time>
      </trkpt>
      <trkpt lat="43.225717" lon="76.974242">
        <ele>1013.531234</ele>
        <time>2025-04-09T03:44:50.999Z</time>
      </trkpt>
      <trkpt lat="43.225717" lon="76.974210">
        <ele>1013.783374</ele>
        <time>2025-04-09T03:44:51.999Z</time>
      </trkpt>
      <trkpt lat="43.225718" lon="76.974176">
        <ele>1014.051491</ele>
        <time>2025-04-09T03:44:52.998Z</time>
      </trkpt>
      <trkpt lat="43.225719" lon="76.974143">
        <ele>1014.311735</ele>
        <time>2025-04-09T03:44:53.998Z</time>
      </trkpt>
      <trkpt lat="43.225721" lon="76.974109">
        <ele>1014.580505</ele>
        <time>2025-04-09T03:44:54.998Z</time>
      </trkpt>
      <trkpt lat="43.225724" lon="76.974075">
        <ele>1014.850361</ele>
        <time>2025-04-09T03:44:55.998Z</time>
      </trkpt>
      <trkpt lat="43.225729" lon="76.974043">
        <ele>1015.108233</ele>
        <time>2025-04-09T03:44:56.998Z</time>
      </trkpt>
      <trkpt lat="43.225735" lon="76.974013">
        <ele>1015.353357</ele>
        <time>2025-04-09T03:44:57.998Z</time>
      </trkpt>
      <trkpt lat="43.225744" lon="76.973986">
        <ele>1015.587303</ele>
        <time>2025-04-09T03:44:58.998Z</time>
      </trkpt>
      <trkpt lat="43.225755" lon="76.973963">
        <ele>1015.804078</ele>
        <time>2025-04-09T03:44:59.998Z</time>
      </trkpt>
      <trkpt lat="43.225769" lon="76.973944">
        <ele>1016.016990</ele>
        <time>2025-04-09T03:45:00.998Z</time>
      </trkpt>
      <trkpt lat="43.225786" lon="76.973930">
        <ele>1016.231377</ele>
        <time>2025-04-09T03:45:01.998Z</time>
      </trkpt>
      <trkpt lat="43.225805" lon="76.973921">
        <ele>1016.448727</ele>
        <time>2025-04-09T03:45:02.998Z</time>
      </trkpt>
      <trkpt lat="43.225827" lon="76.973915">
        <ele>1016.691276</ele>
        <time>2025-04-09T03:45:03.998Z</time>
      </trkpt>
      <trkpt lat="43.225850" lon="76.973912">
        <ele>1016.941107</ele>
        <time>2025-04-09T03:45:04.998Z</time>
      </trkpt>
      <trkpt lat="43.225873" lon="76.973911">
        <ele>1017.189942</ele>
        <time>2025-04-09T03:45:05.998Z</time>
      </trkpt>
      <trkpt lat="43.225898" lon="76.973912">
        <ele>1017.460395</ele>
        <time>2025-04-09T03:45:06.998Z</time>
      </trkpt>
      <trkpt lat="43.225922" lon="76.973915">
        <ele>1017.720993</ele>
        <time>2025-04-09T03:45:07.998Z</time>
      </trkpt>
      <trkpt lat="43.225946" lon="76.973918">
        <ele>1017.981591</ele>
        <time>2025-04-09T03:45:08.998Z</time>
      </trkpt>
      <trkpt lat="43.225970" lon="76.973920">
        <ele>1018.241593</ele>
        <time>2025-04-09T03:45:09.998Z</time>
      </trkpt>
      <trkpt lat="43.225993" lon="76.973922">
        <ele>1018.490802</ele>
        <time>2025-04-09T03:45:10.998Z</time>
      </trkpt>
      <trkpt lat="43.226017" lon="76.973924">
        <ele>1018.750804</ele>
        <time>2025-04-09T03:45:11.998Z</time>
      </trkpt>
      <trkpt lat="43.226040" lon="76.973925">
        <ele>1018.999639</ele>
        <time>2025-04-09T03:45:12.998Z</time>
      </trkpt>
      <trkpt lat="43.226064" lon="76.973927">
        <ele>1019.259641</ele>
        <time>2025-04-09T03:45:13.998Z</time>
      </trkpt>
      <trkpt lat="43.226088" lon="76.973928">
        <ele>1019.519285</ele>
        <time>2025-04-09T03:45:14.998Z</time>
      </trkpt>
      <trkpt lat="43.226112" lon="76.973929">
        <ele>1019.778928</ele>
        <time>2025-04-09T03:45:15.998Z</time>
      </trkpt>
      <trkpt lat="43.226135" lon="76.973928">
        <ele>1020.027764</ele>
        <time>2025-04-09T03:45:16.998Z</time>
      </trkpt>
      <trkpt lat="43.226158" lon="76.973927">
        <ele>1020.276599</ele>
        <time>2025-04-09T03:45:17.998Z</time>
      </trkpt>
      <trkpt lat="43.226181" lon="76.973926">
        <ele>1020.525434</ele>
        <time>2025-04-09T03:45:18.998Z</time>
      </trkpt>
      <trkpt lat="43.226205" lon="76.973925">
        <ele>1020.785078</ele>
        <time>2025-04-09T03:45:19.998Z</time>
      </trkpt>
      <trkpt lat="43.226228" lon="76.973925">
        <ele>1021.033788</ele>
        <time>2025-04-09T03:45:20.998Z</time>
      </trkpt>
      <trkpt lat="43.226251" lon="76.973925">
        <ele>1021.282498</ele>
        <time>2025-04-09T03:45:21.998Z</time>
      </trkpt>
      <trkpt lat="43.226275" lon="76.973925">
        <ele>1021.542022</ele>
        <time>2025-04-09T03:45:22.998Z</time>
      </trkpt>
      <trkpt lat="43.226298" lon="76.973925">
        <ele>1021.790733</ele>
        <time>2025-04-09T03:45:23.998Z</time>
      </trkpt>
      <trkpt lat="43.226322" lon="76.973924">
        <ele>1022.050376</ele>
        <time>2025-04-09T03:45:25.000Z</time>
      </trkpt>
      <trkpt lat="43.226345" lon="76.973923">
        <ele>1022.299212</ele>
        <time>2025-04-09T03:45:26.000Z</time>
      </trkpt>
      <trkpt lat="43.226368" lon="76.973920">
        <ele>1022.549043</ele>
        <time>2025-04-09T03:45:27.000Z</time>
      </trkpt>
      <trkpt lat="43.226390" lon="76.973917">
        <ele>1022.788111</ele>
        <time>2025-04-09T03:45:28.000Z</time>
      </trkpt>
      <trkpt lat="43.226410" lon="76.973911">
        <ele>1023.009488</ele>
        <time>2025-04-09T03:45:29.000Z</time>
      </trkpt>
      <trkpt lat="43.226430" lon="76.973905">
        <ele>1023.230865</ele>
        <time>2025-04-09T03:45:30.000Z</time>
      </trkpt>
      <trkpt lat="43.226450" lon="76.973898">
        <ele>1023.454057</ele>
        <time>2025-04-09T03:45:31.000Z</time>
      </trkpt>
      <trkpt lat="43.226470" lon="76.973892">
        <ele>1023.675434</ele>
        <time>2025-04-09T03:45:32.000Z</time>
      </trkpt>
      <trkpt lat="43.226491" lon="76.973887">
        <ele>1023.905909</ele>
        <time>2025-04-09T03:45:33.000Z</time>
      </trkpt>
      <trkpt lat="43.226513" lon="76.973884">
        <ele>1024.144978</ele>
        <time>2025-04-09T03:45:34.000Z</time>
      </trkpt>
      <trkpt lat="43.226536" lon="76.973882">
        <ele>1024.394187</ele>
        <time>2025-04-09T03:45:35.000Z</time>
      </trkpt>
      <trkpt lat="43.226559" lon="76.973882">
        <ele>1024.642897</ele>
        <time>2025-04-09T03:45:36.000Z</time>
      </trkpt>
      <trkpt lat="43.226581" lon="76.973883">
        <ele>1024.880925</ele>
        <time>2025-04-09T03:45:37.000Z</time>
      </trkpt>
      <trkpt lat="43.226603" lon="76.973885">
        <ele>1025.119343</ele>
        <time>2025-04-09T03:45:38.000Z</time>
      </trkpt>
      <trkpt lat="43.226625" lon="76.973889">
        <ele>1025.359319</ele>
        <time>2025-04-09T03:45:39.000Z</time>
      </trkpt>
      <trkpt lat="43.226646" lon="76.973895">
        <ele>1025.591271</ele>
        <time>2025-04-09T03:45:40.000Z</time>
      </trkpt>
      <trkpt lat="43.226666" lon="76.973903">
        <ele>1025.816540</ele>
        <time>2025-04-09T03:45:41.000Z</time>
      </trkpt>
      <trkpt lat="43.226686" lon="76.973912">
        <ele>1026.044139</ele>
        <time>2025-04-09T03:45:42.000Z</time>
      </trkpt>
      <trkpt lat="43.226705" lon="76.973924">
        <ele>1026.270307</ele>
        <time>2025-04-09T03:45:43.000Z</time>
      </trkpt>
      <trkpt lat="43.226723" lon="76.973938">
        <ele>1026.505228</ele>
        <time>2025-04-09T03:45:44.000Z</time>
      </trkpt>
      <trkpt lat="43.226739" lon="76.973952">
        <ele>1026.720880</ele>
        <time>2025-04-09T03:45:45.000Z</time>
      </trkpt>
      <trkpt lat="43.226753" lon="76.973968">
        <ele>1026.927932</ele>
        <time>2025-04-09T03:45:46.000Z</time>
      </trkpt>
      <trkpt lat="43.226766" lon="76.973984">
        <ele>1027.126383</ele>
        <time>2025-04-09T03:45:47.000Z</time>
      </trkpt>
      <trkpt lat="43.226776" lon="76.974001">
        <ele>1027.307309</ele>
        <time>2025-04-09T03:45:48.000Z</time>
      </trkpt>
      <trkpt lat="43.226785" lon="76.974018">
        <ele>1027.481320</ele>
        <time>2025-04-09T03:45:49.000Z</time>
      </trkpt>
      <trkpt lat="43.226794" lon="76.974037">
        <ele>1027.668983</ele>
        <time>2025-04-09T03:45:50.000Z</time>
      </trkpt>
      <trkpt lat="43.226802" lon="76.974058">
        <ele>1027.865217</ele>
        <time>2025-04-09T03:45:51.000Z</time>
      </trkpt>
      <trkpt lat="43.226810" lon="76.974080">
        <ele>1028.068825</ele>
        <time>2025-04-09T03:45:52.000Z</time>
      </trkpt>
      <trkpt lat="43.226818" lon="76.974103">
        <ele>1028.279875</ele>
        <time>2025-04-09T03:45:53.000Z</time>
      </trkpt>
      <trkpt lat="43.226827" lon="76.974127">
        <ele>1028.503395</ele>
        <time>2025-04-09T03:45:54.000Z</time>
      </trkpt>
      <trkpt lat="43.226836" lon="76.974153">
        <ele>1028.741761</ele>
        <time>2025-04-09T03:45:55.000Z</time>
      </trkpt>
      <trkpt lat="43.226845" lon="76.974179">
        <ele>1028.980127</ele>
        <time>2025-04-09T03:45:56.000Z</time>
      </trkpt>
      <trkpt lat="43.226855" lon="76.974207">
        <ele>1029.238348</ele>
        <time>2025-04-09T03:45:57.000Z</time>
      </trkpt>
      <trkpt lat="43.226865" lon="76.974235">
        <ele>1029.496570</ele>
        <time>2025-04-09T03:45:58.000Z</time>
      </trkpt>
      <trkpt lat="43.226877" lon="76.974264">
        <ele>1029.772740</ele>
        <time>2025-04-09T03:45:59.000Z</time>
      </trkpt>
      <trkpt lat="43.226889" lon="76.974293">
        <ele>1030.048911</ele>
        <time>2025-04-09T03:46:00.000Z</time>
      </trkpt>
      <trkpt lat="43.226902" lon="76.974320">
        <ele>1030.316901</ele>
        <time>2025-04-09T03:46:00.999Z</time>
      </trkpt>
      <trkpt lat="43.226915" lon="76.974346">
        <ele>1030.578022</ele>
        <time>2025-04-09T03:46:01.999Z</time>
      </trkpt>
      <trkpt lat="43.226928" lon="76.974370">
        <ele>1030.825664</ele>
        <time>2025-04-09T03:46:02.999Z</time>
      </trkpt>
      <trkpt lat="43.226941" lon="76.974393">
        <ele>1031.066712</ele>
        <time>2025-04-09T03:46:03.999Z</time>
      </trkpt>
      <trkpt lat="43.226954" lon="76.974414">
        <ele>1031.294899</ele>
        <time>2025-04-09T03:46:04.999Z</time>
      </trkpt>
      <trkpt lat="43.226968" lon="76.974434">
        <ele>1031.524561</ele>
        <time>2025-04-09T03:46:05.999Z</time>
      </trkpt>
      <trkpt lat="43.226981" lon="76.974453">
        <ele>1031.740393</ele>
        <time>2025-04-09T03:46:06.999Z</time>
      </trkpt>
      <trkpt lat="43.226994" lon="76.974471">
        <ele>1031.950265</ele>
        <time>2025-04-09T03:46:07.999Z</time>
      </trkpt>
      <trkpt lat="43.227008" lon="76.974487">
        <ele>1032.157316</ele>
        <time>2025-04-09T03:46:08.999Z</time>
      </trkpt>
      <trkpt lat="43.227022" lon="76.974502">
        <ele>1032.359169</ele>
        <time>2025-04-09T03:46:09.999Z</time>
      </trkpt>
      <trkpt lat="43.227035" lon="76.974516">
        <ele>1032.546968</ele>
        <time>2025-04-09T03:46:10.999Z</time>
      </trkpt>
      <trkpt lat="43.227047" lon="76.974529">
        <ele>1032.720715</ele>
        <time>2025-04-09T03:46:11.999Z</time>
      </trkpt>
      <trkpt lat="43.227058" lon="76.974541">
        <ele>1032.880411</ele>
        <time>2025-04-09T03:46:12.999Z</time>
      </trkpt>
      <trkpt lat="43.227067" lon="76.974552">
        <ele>1033.017376</ele>
        <time>2025-04-09T03:46:13.999Z</time>
      </trkpt>
      <trkpt lat="43.227074" lon="76.974560">
        <ele>1033.120902</ele>
        <time>2025-04-09T03:46:14.999Z</time>
      </trkpt>
      <trkpt lat="43.227079" lon="76.974567">
        <ele>1033.202075</ele>
        <time>2025-04-09T03:46:15.999Z</time>
      </trkpt>
      <trkpt lat="43.227083" lon="76.974571">
        <ele>1033.258323</ele>
        <time>2025-04-09T03:46:16.999Z</time>
      </trkpt>
      <trkpt lat="43.227084" lon="76.974572">
        <ele>1033.272384</ele>
        <time>2025-04-09T03:46:17.999Z</time>
      </trkpt>
      <trkpt lat="43.227085" lon="76.974573">
        <ele>1033.286446</ele>
        <time>2025-04-09T03:46:18.999Z</time>
      </trkpt>
      <trkpt lat="43.227085" lon="76.974572">
        <ele>1033.294727</ele>
        <time>2025-04-09T03:46:19.999Z</time>
      </trkpt>
      <trkpt lat="43.227085" lon="76.974570">
        <ele>1033.311289</ele>
        <time>2025-04-09T03:46:20.999Z</time>
      </trkpt>
      <trkpt lat="43.227084" lon="76.974568">
        <ele>1033.331375</ele>
        <time>2025-04-09T03:46:21.999Z</time>
      </trkpt>
      <trkpt lat="43.227084" lon="76.974565">
        <ele>1033.356218</ele>
        <time>2025-04-09T03:46:22.999Z</time>
      </trkpt>
      <trkpt lat="43.227083" lon="76.974562">
        <ele>1033.383537</ele>
        <time>2025-04-09T03:46:23.999Z</time>
      </trkpt>
      <trkpt lat="43.227083" lon="76.974558">
        <ele>1033.416661</ele>
        <time>2025-04-09T03:46:24.999Z</time>
      </trkpt>
      <trkpt lat="43.227082" lon="76.974555">
        <ele>1033.443980</ele>
        <time>2025-04-09T03:46:25.999Z</time>
      </trkpt>
      <trkpt lat="43.227082" lon="76.974552">
        <ele>1033.468822</ele>
        <time>2025-04-09T03:46:26.999Z</time>
      </trkpt>
      <trkpt lat="43.227082" lon="76.974550">
        <ele>1033.485384</ele>
        <time>2025-04-09T03:46:27.999Z</time>
      </trkpt>
      <trkpt lat="43.227082" lon="76.974548">
        <ele>1033.501946</ele>
        <time>2025-04-09T03:46:28.999Z</time>
      </trkpt>
      <trkpt lat="43.227082" lon="76.974547">
        <ele>1033.510227</ele>
        <time>2025-04-09T03:46:29.999Z</time>
      </trkpt>
      <trkpt lat="43.227083" lon="76.974547">
        <ele>1033.521592</ele>
        <time>2025-04-09T03:46:30.999Z</time>
      </trkpt>
      <trkpt lat="43.227084" lon="76.974547">
        <ele>1033.532957</ele>
        <time>2025-04-09T03:46:32.028Z</time>
      </trkpt>
      <trkpt lat="43.227085" lon="76.974547">
        <ele>1033.544322</ele>
        <time>2025-04-09T03:46:32.999Z</time>
      </trkpt>
      <trkpt lat="43.227086" lon="76.974547">
        <ele>1033.555687</ele>
        <time>2025-04-09T03:46:33.999Z</time>
      </trkpt>
      <trkpt lat="43.227087" lon="76.974548">
        <ele>1033.569748</ele>
        <time>2025-04-09T03:46:34.999Z</time>
      </trkpt>
      <trkpt lat="43.227088" lon="76.974548">
        <ele>1033.581113</ele>
        <time>2025-04-09T03:46:35.999Z</time>
      </trkpt>
      <trkpt lat="43.227089" lon="76.974548">
        <ele>1033.592478</ele>
        <time>2025-04-09T03:46:36.999Z</time>
      </trkpt>
      <trkpt lat="43.227090" lon="76.974549">
        <ele>1033.606540</ele>
        <time>2025-04-09T03:46:37.999Z</time>
      </trkpt>
      <trkpt lat="43.227091" lon="76.974549">
        <ele>1033.617905</ele>
        <time>2025-04-09T03:46:38.999Z</time>
      </trkpt>
      <trkpt lat="43.227092" lon="76.974549">
        <ele>1033.629270</ele>
        <time>2025-04-09T03:46:39.999Z</time>
      </trkpt>
      <trkpt lat="43.227093" lon="76.974549">
        <ele>1033.640634</ele>
        <time>2025-04-09T03:46:40.999Z</time>
      </trkpt>
      <trkpt lat="43.227093" lon="76.974550">
        <ele>1033.648915</ele>
        <time>2025-04-09T03:46:41.999Z</time>
      </trkpt>
      <trkpt lat="43.227094" lon="76.974550">
        <ele>1033.660280</ele>
        <time>2025-04-09T03:46:42.999Z</time>
      </trkpt>
      <trkpt lat="43.227094" lon="76.974550">
        <ele>1033.660280</ele>
        <time>2025-04-09T03:46:43.999Z</time>
      </trkpt>
      <trkpt lat="43.227094" lon="76.974550">
        <ele>1033.660280</ele>
        <time>2025-04-09T03:46:44.999Z</time>
      </trkpt>
      <trkpt lat="43.227094" lon="76.974550">
        <ele>1033.660280</ele>
        <time>2025-04-09T03:46:45.999Z</time>
      </trkpt>
      <trkpt lat="43.227095" lon="76.974550">
        <ele>1033.671645</ele>
        <time>2025-04-09T03:46:46.999Z</time>
      </trkpt>
      <trkpt lat="43.227095" lon="76.974550">
        <ele>1033.671645</ele>
        <time>2025-04-09T03:46:47.999Z</time>
      </trkpt>
      <trkpt lat="43.227095" lon="76.974550">
        <ele>1033.671645</ele>
        <time>2025-04-09T03:46:48.999Z</time>
      </trkpt>
      <trkpt lat="43.227095" lon="76.974550">
        <ele>1033.671645</ele>
        <time>2025-04-09T03:46:49.999Z</time>
      </trkpt>
      <trkpt lat="43.227095" lon="76.974550">
        <ele>1033.671645</ele>
        <time>2025-04-09T03:46:50.999Z</time>
      </trkpt>
      <trkpt lat="43.227094" lon="76.974550">
        <ele>1033.683010</ele>
        <time>2025-04-09T03:46:51.999Z</time>
      </trkpt>
      <trkpt lat="43.227094" lon="76.974550">
        <ele>1033.683010</ele>
        <time>2025-04-09T03:46:52.999Z</time>
      </trkpt>
      <trkpt lat="43.227094" lon="76.974550">
        <ele>1033.683010</ele>
        <time>2025-04-09T03:46:53.999Z</time>
      </trkpt>
      <trkpt lat="43.227094" lon="76.974550">
        <ele>1033.683010</ele>
        <time>2025-04-09T03:46:54.998Z</time>
      </trkpt>
      <trkpt lat="43.227093" lon="76.974550">
        <ele>1033.694375</ele>
        <time>2025-04-09T03:46:55.998Z</time>
      </trkpt>
      <trkpt lat="43.227093" lon="76.974550">
        <ele>1033.694375</ele>
        <time>2025-04-09T03:46:56.998Z</time>
      </trkpt>
      <trkpt lat="43.227093" lon="76.974550">
        <ele>1033.694375</ele>
        <time>2025-04-09T03:46:57.998Z</time>
      </trkpt>
      <trkpt lat="43.227092" lon="76.974550">
        <ele>1033.705740</ele>
        <time>2025-04-09T03:46:58.998Z</time>
      </trkpt>
      <trkpt lat="43.227092" lon="76.974550">
        <ele>1033.705740</ele>
        <time>2025-04-09T03:46:59.998Z</time>
      </trkpt>
      <trkpt lat="43.227092" lon="76.974550">
        <ele>1033.705740</ele>
        <time>2025-04-09T03:47:00.998Z</time>
      </trkpt>
      <trkpt lat="43.227092" lon="76.974550">
        <ele>1033.705740</ele>
        <time>2025-04-09T03:47:01.998Z</time>
      </trkpt>
      <trkpt lat="43.227092" lon="76.974550">
        <ele>1033.705740</ele>
        <time>2025-04-09T03:47:02.998Z</time>
      </trkpt>
      <trkpt lat="43.227093" lon="76.974550">
        <ele>1033.717104</ele>
        <time>2025-04-09T03:47:03.998Z</time>
      </trkpt>
      <trkpt lat="43.227094" lon="76.974550">
        <ele>1033.728469</ele>
        <time>2025-04-09T03:47:04.998Z</time>
      </trkpt>
      <trkpt lat="43.227096" lon="76.974550">
        <ele>1033.751199</ele>
        <time>2025-04-09T03:47:05.998Z</time>
      </trkpt>
      <trkpt lat="43.227099" lon="76.974550">
        <ele>1033.785293</ele>
        <time>2025-04-09T03:47:06.998Z</time>
      </trkpt>
      <trkpt lat="43.227104" lon="76.974550">
        <ele>1033.842118</ele>
        <time>2025-04-09T03:47:07.998Z</time>
      </trkpt>
      <trkpt lat="43.227110" lon="76.974549">
        <ele>1033.910808</ele>
        <time>2025-04-09T03:47:08.998Z</time>
      </trkpt>
      <trkpt lat="43.227118" lon="76.974548">
        <ele>1034.002103</ele>
        <time>2025-04-09T03:47:09.998Z</time>
      </trkpt>
      <trkpt lat="43.227128" lon="76.974546">
        <ele>1034.116952</ele>
        <time>2025-04-09T03:47:10.998Z</time>
      </trkpt>
      <trkpt lat="43.227141" lon="76.974544">
        <ele>1034.265620</ele>
        <time>2025-04-09T03:47:11.998Z</time>
      </trkpt>
      <trkpt lat="43.227156" lon="76.974539">
        <ele>1034.441049</ele>
        <time>2025-04-09T03:47:12.998Z</time>
      </trkpt>
      <trkpt lat="43.227172" lon="76.974533">
        <ele>1034.629553</ele>
        <time>2025-04-09T03:47:13.998Z</time>
      </trkpt>
      <trkpt lat="43.227190" lon="76.974526">
        <ele>1034.842174</ele>
        <time>2025-04-09T03:47:14.998Z</time>
      </trkpt>
      <trkpt lat="43.227209" lon="76.974517">
        <ele>1035.070606</ele>
        <time>2025-04-09T03:47:15.998Z</time>
      </trkpt>
      <trkpt lat="43.227229" lon="76.974507">
        <ele>1035.312518</ele>
        <time>2025-04-09T03:47:16.998Z</time>
      </trkpt>
      <trkpt lat="43.227249" lon="76.974498">
        <ele>1035.551721</ele>
        <time>2025-04-09T03:47:17.998Z</time>
      </trkpt>
      <trkpt lat="43.227270" lon="76.974488">
        <ele>1035.804341</ele>
        <time>2025-04-09T03:47:18.998Z</time>
      </trkpt>
      <trkpt lat="43.227292" lon="76.974479">
        <ele>1036.065239</ele>
        <time>2025-04-09T03:47:19.998Z</time>
      </trkpt>
      <trkpt lat="43.227313" lon="76.974469">
        <ele>1036.317859</ele>
        <time>2025-04-09T03:47:20.998Z</time>
      </trkpt>
      <trkpt lat="43.227335" lon="76.974459">
        <ele>1036.581242</ele>
        <time>2025-04-09T03:47:21.998Z</time>
      </trkpt>
      <trkpt lat="43.227356" lon="76.974448">
        <ele>1036.836697</ele>
        <time>2025-04-09T03:47:22.998Z</time>
      </trkpt>
      <trkpt lat="43.227378" lon="76.974438">
        <ele>1037.100080</ele>
        <time>2025-04-09T03:47:23.998Z</time>
      </trkpt>
      <trkpt lat="43.227399" lon="76.974428">
        <ele>1037.352700</ele>
        <time>2025-04-09T03:47:24.998Z</time>
      </trkpt>
      <trkpt lat="43.227420" lon="76.974417">
        <ele>1037.608154</ele>
        <time>2025-04-09T03:47:25.998Z</time>
      </trkpt>
      <trkpt lat="43.227440" lon="76.974406">
        <ele>1037.853024</ele>
        <time>2025-04-09T03:47:26.998Z</time>
      </trkpt>
      <trkpt lat="43.227460" lon="76.974395">
        <ele>1038.097894</ele>
        <time>2025-04-09T03:47:27.998Z</time>
      </trkpt>
      <trkpt lat="43.227480" lon="76.974384">
        <ele>1038.342763</ele>
        <time>2025-04-09T03:47:28.998Z</time>
      </trkpt>
      <trkpt lat="43.227500" lon="76.974373">
        <ele>1038.587633</ele>
        <time>2025-04-09T03:47:29.998Z</time>
      </trkpt>
      <trkpt lat="43.227520" lon="76.974361">
        <ele>1038.835703</ele>
        <time>2025-04-09T03:47:31.000Z</time>
      </trkpt>
      <trkpt lat="43.227539" lon="76.974350">
        <ele>1039.070061</ele>
        <time>2025-04-09T03:47:32.000Z</time>
      </trkpt>
      <trkpt lat="43.227558" lon="76.974339">
        <ele>1039.304420</ele>
        <time>2025-04-09T03:47:33.000Z</time>
      </trkpt>
      <trkpt lat="43.227577" lon="76.974328">
        <ele>1039.538779</ele>
        <time>2025-04-09T03:47:34.000Z</time>
      </trkpt>
      <trkpt lat="43.227596" lon="76.974319">
        <ele>1039.767211</ele>
        <time>2025-04-09T03:47:35.000Z</time>
      </trkpt>
      <trkpt lat="43.227615" lon="76.974311">
        <ele>1039.993076</ele>
        <time>2025-04-09T03:47:36.000Z</time>
      </trkpt>
      <trkpt lat="43.227634" lon="76.974304">
        <ele>1040.216654</ele>
        <time>2025-04-09T03:47:37.000Z</time>
      </trkpt>
      <trkpt lat="43.227654" lon="76.974300">
        <ele>1040.446351</ele>
        <time>2025-04-09T03:47:38.000Z</time>
      </trkpt>
      <trkpt lat="43.227673" lon="76.974299">
        <ele>1040.662442</ele>
        <time>2025-04-09T03:47:39.000Z</time>
      </trkpt>
      <trkpt lat="43.227693" lon="76.974300">
        <ele>1040.889890</ele>
        <time>2025-04-09T03:47:40.000Z</time>
      </trkpt>
      <trkpt lat="43.227713" lon="76.974304">
        <ele>1041.119588</ele>
        <time>2025-04-09T03:47:41.000Z</time>
      </trkpt>
      <trkpt lat="43.227732" lon="76.974310">
        <ele>1041.341162</ele>
        <time>2025-04-09T03:47:42.000Z</time>
      </trkpt>
      <trkpt lat="43.227751" lon="76.974318">
        <ele>1041.567028</ele>
        <time>2025-04-09T03:47:43.000Z</time>
      </trkpt>
      <trkpt lat="43.227770" lon="76.974328">
        <ele>1041.798294</ele>
        <time>2025-04-09T03:47:44.000Z</time>
      </trkpt>
      <trkpt lat="43.227788" lon="76.974339">
        <ele>1042.022225</ele>
        <time>2025-04-09T03:47:45.000Z</time>
      </trkpt>
      <trkpt lat="43.227805" lon="76.974351">
        <ele>1042.239484</ele>
        <time>2025-04-09T03:47:46.000Z</time>
      </trkpt>
      <trkpt lat="43.227822" lon="76.974364">
        <ele>1042.460654</ele>
        <time>2025-04-09T03:47:47.000Z</time>
      </trkpt>
      <trkpt lat="43.227839" lon="76.974377">
        <ele>1042.681823</ele>
        <time>2025-04-09T03:47:48.000Z</time>
      </trkpt>
      <trkpt lat="43.227856" lon="76.974391">
        <ele>1042.907139</ele>
        <time>2025-04-09T03:47:49.000Z</time>
      </trkpt>
      <trkpt lat="43.227872" lon="76.974406">
        <ele>1043.127352</ele>
        <time>2025-04-09T03:47:50.000Z</time>
      </trkpt>
      <trkpt lat="43.227888" lon="76.974420">
        <ele>1043.343002</ele>
        <time>2025-04-09T03:47:51.000Z</time>
      </trkpt>
      <trkpt lat="43.227904" lon="76.974436">
        <ele>1043.567990</ele>
        <time>2025-04-09T03:47:52.000Z</time>
      </trkpt>
      <trkpt lat="43.227920" lon="76.974451">
        <ele>1043.788202</ele>
        <time>2025-04-09T03:47:53.000Z</time>
      </trkpt>
      <trkpt lat="43.227936" lon="76.974468">
        <ele>1044.018164</ele>
        <time>2025-04-09T03:47:54.000Z</time>
      </trkpt>
      <trkpt lat="43.227951" lon="76.974484">
        <ele>1044.234070</ele>
        <time>2025-04-09T03:47:55.000Z</time>
      </trkpt>
      <trkpt lat="43.227967" lon="76.974500">
        <ele>1044.459057</ele>
        <time>2025-04-09T03:47:56.000Z</time>
      </trkpt>
      <trkpt lat="43.227983" lon="76.974517">
        <ele>1044.689018</ele>
        <time>2025-04-09T03:47:57.000Z</time>
      </trkpt>
      <trkpt lat="43.228000" lon="76.974533">
        <ele>1044.923286</ele>
        <time>2025-04-09T03:47:58.000Z</time>
      </trkpt>
      <trkpt lat="43.228017" lon="76.974549">
        <ele>1045.157555</ele>
        <time>2025-04-09T03:47:59.000Z</time>
      </trkpt>
      <trkpt lat="43.228035" lon="76.974566">
        <ele>1045.405879</ele>
        <time>2025-04-09T03:48:00.000Z</time>
      </trkpt>
      <trkpt lat="43.228053" lon="76.974582">
        <ele>1045.649605</ele>
        <time>2025-04-09T03:48:01.000Z</time>
      </trkpt>
      <trkpt lat="43.228070" lon="76.974597">
        <ele>1045.879291</ele>
        <time>2025-04-09T03:48:02.000Z</time>
      </trkpt>
      <trkpt lat="43.228088" lon="76.974611">
        <ele>1046.114425</ele>
        <time>2025-04-09T03:48:03.000Z</time>
      </trkpt>
      <trkpt lat="43.228104" lon="76.974625">
        <ele>1046.330075</ele>
        <time>2025-04-09T03:48:04.000Z</time>
      </trkpt>
      <trkpt lat="43.228120" lon="76.974638">
        <ele>1046.541389</ele>
        <time>2025-04-09T03:48:05.000Z</time>
      </trkpt>
      <trkpt lat="43.228136" lon="76.974649">
        <ele>1046.739347</ele>
        <time>2025-04-09T03:48:06.000Z</time>
      </trkpt>
      <trkpt lat="43.228152" lon="76.974661">
        <ele>1046.907789</ele>
        <time>2025-04-09T03:48:07.000Z</time>
      </trkpt>
      <trkpt lat="43.228168" lon="76.974672">
        <ele>1047.073109</ele>
        <time>2025-04-09T03:48:07.999Z</time>
      </trkpt>
      <trkpt lat="43.228185" lon="76.974682">
        <ele>1047.243975</ele>
        <time>2025-04-09T03:48:08.999Z</time>
      </trkpt>
      <trkpt lat="43.228201" lon="76.974692">
        <ele>1047.406391</ele>
        <time>2025-04-09T03:48:09.999Z</time>
      </trkpt>
      <trkpt lat="43.228219" lon="76.974702">
        <ele>1047.585786</ele>
        <time>2025-04-09T03:48:10.999Z</time>
      </trkpt>
      <trkpt lat="43.228236" lon="76.974712">
        <ele>1047.756652</ele>
        <time>2025-04-09T03:48:11.999Z</time>
      </trkpt>
      <trkpt lat="43.228254" lon="76.974722">
        <ele>1047.936047</ele>
        <time>2025-04-09T03:48:12.999Z</time>
      </trkpt>
      <trkpt lat="43.228273" lon="76.974733">
        <ele>1048.126550</ele>
        <time>2025-04-09T03:48:13.999Z</time>
      </trkpt>
      <trkpt lat="43.228293" lon="76.974744">
        <ele>1048.325598</ele>
        <time>2025-04-09T03:48:14.999Z</time>
      </trkpt>
      <trkpt lat="43.228312" lon="76.974755">
        <ele>1048.516102</ele>
        <time>2025-04-09T03:48:15.999Z</time>
      </trkpt>
      <trkpt lat="43.228332" lon="76.974767">
        <ele>1048.717750</ele>
        <time>2025-04-09T03:48:16.999Z</time>
      </trkpt>
      <trkpt lat="43.228352" lon="76.974780">
        <ele>1048.922188</ele>
        <time>2025-04-09T03:48:17.999Z</time>
      </trkpt>
      <trkpt lat="43.228371" lon="76.974792">
        <ele>1049.115407</ele>
        <time>2025-04-09T03:48:18.999Z</time>
      </trkpt>
      <trkpt lat="43.228391" lon="76.974805">
        <ele>1049.319845</ele>
        <time>2025-04-09T03:48:19.999Z</time>
      </trkpt>
      <trkpt lat="43.228410" lon="76.974818">
        <ele>1049.515974</ele>
        <time>2025-04-09T03:48:20.999Z</time>
      </trkpt>
      <trkpt lat="43.228430" lon="76.974830">
        <ele>1049.717622</ele>
        <time>2025-04-09T03:48:21.999Z</time>
      </trkpt>
      <trkpt lat="43.228450" lon="76.974843">
        <ele>1049.922060</ele>
        <time>2025-04-09T03:48:22.999Z</time>
      </trkpt>
      <trkpt lat="43.228470" lon="76.974855">
        <ele>1050.123708</ele>
        <time>2025-04-09T03:48:23.999Z</time>
      </trkpt>
      <trkpt lat="43.228490" lon="76.974866">
        <ele>1050.322756</ele>
        <time>2025-04-09T03:48:24.999Z</time>
      </trkpt>
      <trkpt lat="43.228511" lon="76.974878">
        <ele>1050.532902</ele>
        <time>2025-04-09T03:48:25.999Z</time>
      </trkpt>
      <trkpt lat="43.228532" lon="76.974889">
        <ele>1050.740553</ele>
        <time>2025-04-09T03:48:26.999Z</time>
      </trkpt>
      <trkpt lat="43.228552" lon="76.974899">
        <ele>1050.937196</ele>
        <time>2025-04-09T03:48:27.999Z</time>
      </trkpt>
      <trkpt lat="43.228572" lon="76.974909">
        <ele>1051.133839</ele>
        <time>2025-04-09T03:48:28.999Z</time>
      </trkpt>
      <trkpt lat="43.228592" lon="76.974919">
        <ele>1051.330482</ele>
        <time>2025-04-09T03:48:29.999Z</time>
      </trkpt>
      <trkpt lat="43.228611" lon="76.974929">
        <ele>1051.518472</ele>
        <time>2025-04-09T03:48:30.999Z</time>
      </trkpt>
      <trkpt lat="43.228630" lon="76.974938">
        <ele>1051.704157</ele>
        <time>2025-04-09T03:48:31.999Z</time>
      </trkpt>
      <trkpt lat="43.228649" lon="76.974947">
        <ele>1051.889843</ele>
        <time>2025-04-09T03:48:32.999Z</time>
      </trkpt>
      <trkpt lat="43.228668" lon="76.974955">
        <ele>1052.073443</ele>
        <time>2025-04-09T03:48:33.999Z</time>
      </trkpt>
      <trkpt lat="43.228687" lon="76.974964">
        <ele>1052.259129</ele>
        <time>2025-04-09T03:48:34.999Z</time>
      </trkpt>
      <trkpt lat="43.228706" lon="76.974972">
        <ele>1052.442729</ele>
        <time>2025-04-09T03:48:35.999Z</time>
      </trkpt>
      <trkpt lat="43.228725" lon="76.974980">
        <ele>1052.626328</ele>
        <time>2025-04-09T03:48:36.999Z</time>
      </trkpt>
      <trkpt lat="43.228744" lon="76.974988">
        <ele>1052.809928</ele>
        <time>2025-04-09T03:48:37.999Z</time>
      </trkpt>
      <trkpt lat="43.228764" lon="76.974995">
        <ele>1053.000605</ele>
        <time>2025-04-09T03:48:38.999Z</time>
      </trkpt>
      <trkpt lat="43.228785" lon="76.975003">
        <ele>1053.201942</ele>
        <time>2025-04-09T03:48:39.999Z</time>
      </trkpt>
      <trkpt lat="43.228806" lon="76.975010">
        <ele>1053.401584</ele>
        <time>2025-04-09T03:48:40.999Z</time>
      </trkpt>
      <trkpt lat="43.228827" lon="76.975018">
        <ele>1053.602920</ele>
        <time>2025-04-09T03:48:41.999Z</time>
      </trkpt>
      <trkpt lat="43.228848" lon="76.975025">
        <ele>1053.802562</ele>
        <time>2025-04-09T03:48:42.999Z</time>
      </trkpt>
      <trkpt lat="43.228869" lon="76.975033">
        <ele>1054.003899</ele>
        <time>2025-04-09T03:48:43.999Z</time>
      </trkpt>
      <trkpt lat="43.228889" lon="76.975042">
        <ele>1054.198340</ele>
        <time>2025-04-09T03:48:44.999Z</time>
      </trkpt>
      <trkpt lat="43.228910" lon="76.975051">
        <ele>1054.401581</ele>
        <time>2025-04-09T03:48:45.999Z</time>
      </trkpt>
      <trkpt lat="43.228930" lon="76.975061">
        <ele>1054.598224</ele>
        <time>2025-04-09T03:48:46.999Z</time>
      </trkpt>
      <trkpt lat="43.228952" lon="76.975072">
        <ele>1054.814531</ele>
        <time>2025-04-09T03:48:47.999Z</time>
      </trkpt>
      <trkpt lat="43.228974" lon="76.975084">
        <ele>1055.033233</ele>
        <time>2025-04-09T03:48:48.999Z</time>
      </trkpt>
      <trkpt lat="43.228996" lon="76.975097">
        <ele>1055.254511</ele>
        <time>2025-04-09T03:48:49.999Z</time>
      </trkpt>
      <trkpt lat="43.229020" lon="76.975109">
        <ele>1055.490482</ele>
        <time>2025-04-09T03:48:50.999Z</time>
      </trkpt>
      <trkpt lat="43.229045" lon="76.975121">
        <ele>1055.735154</ele>
        <time>2025-04-09T03:48:51.999Z</time>
      </trkpt>
      <trkpt lat="43.229071" lon="76.975133">
        <ele>1055.988565</ele>
        <time>2025-04-09T03:48:52.999Z</time>
      </trkpt>
      <trkpt lat="43.229097" lon="76.975144">
        <ele>1056.239910</ele>
        <time>2025-04-09T03:48:53.999Z</time>
      </trkpt>
      <trkpt lat="43.229123" lon="76.975154">
        <ele>1056.489357</ele>
        <time>2025-04-09T03:48:54.999Z</time>
      </trkpt>
      <trkpt lat="43.229150" lon="76.975163">
        <ele>1056.746039</ele>
        <time>2025-04-09T03:48:55.999Z</time>
      </trkpt>
      <trkpt lat="43.229177" lon="76.975171">
        <ele>1057.001216</ele>
        <time>2025-04-09T03:48:56.999Z</time>
      </trkpt>
      <trkpt lat="43.229204" lon="76.975177">
        <ele>1057.253895</ele>
        <time>2025-04-09T03:48:57.999Z</time>
      </trkpt>
      <trkpt lat="43.229230" lon="76.975180">
        <ele>1057.494935</ele>
        <time>2025-04-09T03:48:58.999Z</time>
      </trkpt>
      <trkpt lat="43.229256" lon="76.975181">
        <ele>1057.735222</ele>
        <time>2025-04-09T03:48:59.999Z</time>
      </trkpt>
      <trkpt lat="43.229282" lon="76.975178">
        <ele>1057.976262</ele>
        <time>2025-04-09T03:49:00.999Z</time>
      </trkpt>
      <trkpt lat="43.229312" lon="76.975168">
        <ele>1058.261465</ele>
        <time>2025-04-09T03:49:02.217Z</time>
      </trkpt>
      <trkpt lat="43.229330" lon="76.975159">
        <ele>1058.438443</ele>
        <time>2025-04-09T03:49:02.998Z</time>
      </trkpt>
      <trkpt lat="43.229352" lon="76.975144">
        <ele>1058.665381</ele>
        <time>2025-04-09T03:49:03.998Z</time>
      </trkpt>
      <trkpt lat="43.229371" lon="76.975127">
        <ele>1058.874911</ele>
        <time>2025-04-09T03:49:04.998Z</time>
      </trkpt>
      <trkpt lat="43.229387" lon="76.975107">
        <ele>1059.074839</ele>
        <time>2025-04-09T03:49:05.998Z</time>
      </trkpt>
      <trkpt lat="43.229399" lon="76.975085">
        <ele>1059.259822</ele>
        <time>2025-04-09T03:49:06.998Z</time>
      </trkpt>
      <trkpt lat="43.229407" lon="76.975061">
        <ele>1059.437471</ele>
        <time>2025-04-09T03:49:07.998Z</time>
      </trkpt>
      <trkpt lat="43.229411" lon="76.975035">
        <ele>1059.616338</ele>
        <time>2025-04-09T03:49:08.998Z</time>
      </trkpt>
      <trkpt lat="43.229413" lon="76.975007">
        <ele>1059.805712</ele>
        <time>2025-04-09T03:49:09.998Z</time>
      </trkpt>
      <trkpt lat="43.229411" lon="76.974978">
        <ele>1060.001786</ele>
        <time>2025-04-09T03:49:10.998Z</time>
      </trkpt>
      <trkpt lat="43.229406" lon="76.974949">
        <ele>1060.202379</ele>
        <time>2025-04-09T03:49:11.998Z</time>
      </trkpt>
      <trkpt lat="43.229399" lon="76.974919">
        <ele>1060.414414</ele>
        <time>2025-04-09T03:49:12.998Z</time>
      </trkpt>
      <trkpt lat="43.229390" lon="76.974890">
        <ele>1060.626585</ele>
        <time>2025-04-09T03:49:13.998Z</time>
      </trkpt>
      <trkpt lat="43.229380" lon="76.974860">
        <ele>1060.848646</ele>
        <time>2025-04-09T03:49:14.998Z</time>
      </trkpt>
      <trkpt lat="43.229369" lon="76.974829">
        <ele>1061.080740</ele>
        <time>2025-04-09T03:49:15.998Z</time>
      </trkpt>
      <trkpt lat="43.229358" lon="76.974799">
        <ele>1061.306801</ele>
        <time>2025-04-09T03:49:16.998Z</time>
      </trkpt>
      <trkpt lat="43.229347" lon="76.974768">
        <ele>1061.538894</ele>
        <time>2025-04-09T03:49:17.998Z</time>
      </trkpt>
      <trkpt lat="43.229338" lon="76.974737">
        <ele>1061.763513</ele>
        <time>2025-04-09T03:49:18.998Z</time>
      </trkpt>
      <trkpt lat="43.229331" lon="76.974705">
        <ele>1061.988406</ele>
        <time>2025-04-09T03:49:19.998Z</time>
      </trkpt>
      <trkpt lat="43.229326" lon="76.974672">
        <ele>1062.215285</ele>
        <time>2025-04-09T03:49:20.998Z</time>
      </trkpt>
      <trkpt lat="43.229323" lon="76.974638">
        <ele>1062.445814</ele>
        <time>2025-04-09T03:49:21.998Z</time>
      </trkpt>
      <trkpt lat="43.229323" lon="76.974603">
        <ele>1062.681403</ele>
        <time>2025-04-09T03:49:22.998Z</time>
      </trkpt>
      <trkpt lat="43.229325" lon="76.974567">
        <ele>1062.924426</ele>
        <time>2025-04-09T03:49:23.998Z</time>
      </trkpt>
      <trkpt lat="43.229330" lon="76.974529">
        <ele>1063.184345</ele>
        <time>2025-04-09T03:49:24.998Z</time>
      </trkpt>
      <trkpt lat="43.229336" lon="76.974492">
        <ele>1063.450432</ele>
        <time>2025-04-09T03:49:25.998Z</time>
      </trkpt>
      <trkpt lat="43.229345" lon="76.974454">
        <ele>1063.746768</ele>
        <time>2025-04-09T03:49:26.998Z</time>
      </trkpt>
      <trkpt lat="43.229356" lon="76.974416">
        <ele>1064.050016</ele>
        <time>2025-04-09T03:49:27.998Z</time>
      </trkpt>
      <trkpt lat="43.229368" lon="76.974380">
        <ele>1064.343618</ele>
        <time>2025-04-09T03:49:28.998Z</time>
      </trkpt>
      <trkpt lat="43.229382" lon="76.974344">
        <ele>1064.646255</ele>
        <time>2025-04-09T03:49:29.998Z</time>
      </trkpt>
      <trkpt lat="43.229397" lon="76.974310">
        <ele>1064.941032</ele>
        <time>2025-04-09T03:49:30.998Z</time>
      </trkpt>
      <trkpt lat="43.229413" lon="76.974279">
        <ele>1065.222776</ele>
        <time>2025-04-09T03:49:31.998Z</time>
      </trkpt>
      <trkpt lat="43.229431" lon="76.974251">
        <ele>1065.499705</ele>
        <time>2025-04-09T03:49:32.998Z</time>
      </trkpt>
      <trkpt lat="43.229451" lon="76.974225">
        <ele>1065.780103</ele>
        <time>2025-04-09T03:49:33.998Z</time>
      </trkpt>
      <trkpt lat="43.229473" lon="76.974204">
        <ele>1066.052868</ele>
        <time>2025-04-09T03:49:34.998Z</time>
      </trkpt>
      <trkpt lat="43.229496" lon="76.974186">
        <ele>1066.322363</ele>
        <time>2025-04-09T03:49:35.998Z</time>
      </trkpt>
      <trkpt lat="43.229521" lon="76.974172">
        <ele>1066.597197</ele>
        <time>2025-04-09T03:49:37.000Z</time>
      </trkpt>
      <trkpt lat="43.229547" lon="76.974162">
        <ele>1066.872037</ele>
        <time>2025-04-09T03:49:38.000Z</time>
      </trkpt>
      <trkpt lat="43.229573" lon="76.974156">
        <ele>1067.140396</ele>
        <time>2025-04-09T03:49:39.000Z</time>
      </trkpt>
      <trkpt lat="43.229600" lon="76.974152">
        <ele>1067.416816</ele>
        <time>2025-04-09T03:49:40.000Z</time>
      </trkpt>
      <trkpt lat="43.229625" lon="76.974151">
        <ele>1067.671390</ele>
        <time>2025-04-09T03:49:41.000Z</time>
      </trkpt>
      <trkpt lat="43.229649" lon="76.974151">
        <ele>1067.915678</ele>
        <time>2025-04-09T03:49:42.000Z</time>
      </trkpt>
      <trkpt lat="43.229673" lon="76.974150">
        <ele>1068.160078</ele>
        <time>2025-04-09T03:49:43.000Z</time>
      </trkpt>
      <trkpt lat="43.229695" lon="76.974150">
        <ele>1068.384008</ele>
        <time>2025-04-09T03:49:44.000Z</time>
      </trkpt>
      <trkpt lat="43.229717" lon="76.974150">
        <ele>1068.607938</ele>
        <time>2025-04-09T03:49:45.000Z</time>
      </trkpt>
      <trkpt lat="43.229739" lon="76.974149">
        <ele>1068.831991</ele>
        <time>2025-04-09T03:49:46.000Z</time>
      </trkpt>
      <trkpt lat="43.229760" lon="76.974149">
        <ele>1069.045743</ele>
        <time>2025-04-09T03:49:47.000Z</time>
      </trkpt>
      <trkpt lat="43.229782" lon="76.974148">
        <ele>1069.269796</ele>
        <time>2025-04-09T03:49:48.000Z</time>
      </trkpt>
      <trkpt lat="43.229805" lon="76.974147">
        <ele>1069.504022</ele>
        <time>2025-04-09T03:49:49.000Z</time>
      </trkpt>
      <trkpt lat="43.229827" lon="76.974147">
        <ele>1069.727952</ele>
        <time>2025-04-09T03:49:50.000Z</time>
      </trkpt>
      <trkpt lat="43.229850" lon="76.974147">
        <ele>1069.962061</ele>
        <time>2025-04-09T03:49:51.000Z</time>
      </trkpt>
      <trkpt lat="43.229873" lon="76.974148">
        <ele>1070.196287</ele>
        <time>2025-04-09T03:49:52.000Z</time>
      </trkpt>
      <trkpt lat="43.229895" lon="76.974150">
        <ele>1070.420708</ele>
        <time>2025-04-09T03:49:53.000Z</time>
      </trkpt>
      <trkpt lat="43.229918" lon="76.974154">
        <ele>1070.656689</ele>
        <time>2025-04-09T03:49:54.000Z</time>
      </trkpt>
      <trkpt lat="43.229939" lon="76.974161">
        <ele>1070.876655</ele>
        <time>2025-04-09T03:49:55.000Z</time>
      </trkpt>
      <trkpt lat="43.229960" lon="76.974171">
        <ele>1071.102906</ele>
        <time>2025-04-09T03:49:56.000Z</time>
      </trkpt>
      <trkpt lat="43.229979" lon="76.974184">
        <ele>1071.319000</ele>
        <time>2025-04-09T03:49:57.000Z</time>
      </trkpt>
      <trkpt lat="43.229997" lon="76.974200">
        <ele>1071.537285</ele>
        <time>2025-04-09T03:49:58.000Z</time>
      </trkpt>
      <trkpt lat="43.230013" lon="76.974217">
        <ele>1071.743241</ele>
        <time>2025-04-09T03:49:59.000Z</time>
      </trkpt>
      <trkpt lat="43.230028" lon="76.974237">
        <ele>1071.956106</ele>
        <time>2025-04-09T03:50:00.000Z</time>
      </trkpt>
      <trkpt lat="43.230042" lon="76.974258">
        <ele>1072.167203</ele>
        <time>2025-04-09T03:50:01.000Z</time>
      </trkpt>
      <trkpt lat="43.230056" lon="76.974281">
        <ele>1072.389469</ele>
        <time>2025-04-09T03:50:02.000Z</time>
      </trkpt>
      <trkpt lat="43.230070" lon="76.974304">
        <ele>1072.611734</ele>
        <time>2025-04-09T03:50:03.000Z</time>
      </trkpt>
      <trkpt lat="43.230084" lon="76.974328">
        <ele>1072.839741</ele>
        <time>2025-04-09T03:50:04.000Z</time>
      </trkpt>
      <trkpt lat="43.230099" lon="76.974352">
        <ele>1073.074244</ele>
        <time>2025-04-09T03:50:05.000Z</time>
      </trkpt>
      <trkpt lat="43.230115" lon="76.974375">
        <ele>1073.310079</ele>
        <time>2025-04-09T03:50:06.000Z</time>
      </trkpt>
      <trkpt lat="43.230130" lon="76.974397">
        <ele>1073.533533</ele>
        <time>2025-04-09T03:50:07.000Z</time>
      </trkpt>
      <trkpt lat="43.230146" lon="76.974418">
        <ele>1073.758873</ele>
        <time>2025-04-09T03:50:08.000Z</time>
      </trkpt>
      <trkpt lat="43.230162" lon="76.974437">
        <ele>1073.974228</ele>
        <time>2025-04-09T03:50:09.000Z</time>
      </trkpt>
      <trkpt lat="43.230177" lon="76.974456">
        <ele>1074.181993</ele>
        <time>2025-04-09T03:50:10.000Z</time>
      </trkpt>
      <trkpt lat="43.230192" lon="76.974473">
        <ele>1074.379999</ele>
        <time>2025-04-09T03:50:11.000Z</time>
      </trkpt>
      <trkpt lat="43.230207" lon="76.974491">
        <ele>1074.582808</ele>
        <time>2025-04-09T03:50:11.999Z</time>
      </trkpt>
      <trkpt lat="43.230221" lon="76.974507">
        <ele>1074.768244</ele>
        <time>2025-04-09T03:50:12.999Z</time>
      </trkpt>
      <trkpt lat="43.230236" lon="76.974524">
        <ele>1074.966250</ele>
        <time>2025-04-09T03:50:13.999Z</time>
      </trkpt>
      <trkpt lat="43.230249" lon="76.974541">
        <ele>1075.149018</ele>
        <time>2025-04-09T03:50:14.999Z</time>
      </trkpt>
      <trkpt lat="43.230263" lon="76.974558">
        <ele>1075.339286</ele>
        <time>2025-04-09T03:50:15.999Z</time>
      </trkpt>
      <trkpt lat="43.230275" lon="76.974574">
        <ele>1075.509577</ele>
        <time>2025-04-09T03:50:16.999Z</time>
      </trkpt>
      <trkpt lat="43.230288" lon="76.974591">
        <ele>1075.692346</ele>
        <time>2025-04-09T03:50:17.999Z</time>
      </trkpt>
      <trkpt lat="43.230299" lon="76.974608">
        <ele>1075.860962</ele>
        <time>2025-04-09T03:50:18.999Z</time>
      </trkpt>
      <trkpt lat="43.230311" lon="76.974624">
        <ele>1076.031253</ele>
        <time>2025-04-09T03:50:19.999Z</time>
      </trkpt>
      <trkpt lat="43.230323" lon="76.974640">
        <ele>1076.201545</ele>
        <time>2025-04-09T03:50:20.999Z</time>
      </trkpt>
      <trkpt lat="43.230335" lon="76.974656">
        <ele>1076.371836</ele>
        <time>2025-04-09T03:50:21.999Z</time>
      </trkpt>
      <trkpt lat="43.230347" lon="76.974671">
        <ele>1076.537046</ele>
        <time>2025-04-09T03:50:22.999Z</time>
      </trkpt>
      <trkpt lat="43.230359" lon="76.974686">
        <ele>1076.702255</ele>
        <time>2025-04-09T03:50:23.999Z</time>
      </trkpt>
      <trkpt lat="43.230372" lon="76.974701">
        <ele>1076.875126</ele>
        <time>2025-04-09T03:50:24.999Z</time>
      </trkpt>
      <trkpt lat="43.230386" lon="76.974715">
        <ele>1077.051440</ele>
        <time>2025-04-09T03:50:25.999Z</time>
      </trkpt>
      <trkpt lat="43.230400" lon="76.974730">
        <ele>1077.232221</ele>
        <time>2025-04-09T03:50:26.999Z</time>
      </trkpt>
      <trkpt lat="43.230415" lon="76.974743">
        <ele>1077.412792</ele>
        <time>2025-04-09T03:50:27.999Z</time>
      </trkpt>
      <trkpt lat="43.230430" lon="76.974757">
        <ele>1077.597430</ele>
        <time>2025-04-09T03:50:28.999Z</time>
      </trkpt>
      <trkpt lat="43.230446" lon="76.974770">
        <ele>1077.786686</ele>
        <time>2025-04-09T03:50:29.999Z</time>
      </trkpt>
      <trkpt lat="43.230461" lon="76.974783">
        <ele>1077.967258</ele>
        <time>2025-04-09T03:50:30.999Z</time>
      </trkpt>
      <trkpt lat="43.230477" lon="76.974795">
        <ele>1078.152846</ele>
        <time>2025-04-09T03:50:31.999Z</time>
      </trkpt>
      <trkpt lat="43.230492" lon="76.974807">
        <ele>1078.329569</ele>
        <time>2025-04-09T03:50:32.999Z</time>
      </trkpt>
      <trkpt lat="43.230507" lon="76.974818">
        <ele>1078.502676</ele>
        <time>2025-04-09T03:50:33.999Z</time>
      </trkpt>
      <trkpt lat="43.230521" lon="76.974829">
        <ele>1078.666876</ele>
        <time>2025-04-09T03:50:34.999Z</time>
      </trkpt>
      <trkpt lat="43.230536" lon="76.974840">
        <ele>1078.839983</ele>
        <time>2025-04-09T03:50:35.999Z</time>
      </trkpt>
      <trkpt lat="43.230550" lon="76.974850">
        <ele>1079.000627</ele>
        <time>2025-04-09T03:50:36.999Z</time>
      </trkpt>
      <trkpt lat="43.230565" lon="76.974860">
        <ele>1079.170365</ele>
        <time>2025-04-09T03:50:37.999Z</time>
      </trkpt>
      <trkpt lat="43.230580" lon="76.974871">
        <ele>1079.343472</ele>
        <time>2025-04-09T03:50:38.999Z</time>
      </trkpt>
      <trkpt lat="43.230595" lon="76.974881">
        <ele>1079.513211</ele>
        <time>2025-04-09T03:50:39.999Z</time>
      </trkpt>
      <trkpt lat="43.230610" lon="76.974892">
        <ele>1079.686318</ele>
        <time>2025-04-09T03:50:40.999Z</time>
      </trkpt>
      <trkpt lat="43.230626" lon="76.974903">
        <ele>1079.868466</ele>
        <time>2025-04-09T03:50:41.999Z</time>
      </trkpt>
      <trkpt lat="43.230641" lon="76.974915">
        <ele>1080.045189</ele>
        <time>2025-04-09T03:50:42.999Z</time>
      </trkpt>
      <trkpt lat="43.230657" lon="76.974926">
        <ele>1080.227336</ele>
        <time>2025-04-09T03:50:43.999Z</time>
      </trkpt>
      <trkpt lat="43.230673" lon="76.974938">
        <ele>1080.412924</ele>
        <time>2025-04-09T03:50:44.999Z</time>
      </trkpt>
      <trkpt lat="43.230689" lon="76.974951">
        <ele>1080.602180</ele>
        <time>2025-04-09T03:50:45.999Z</time>
      </trkpt>
      <trkpt lat="43.230705" lon="76.974963">
        <ele>1080.787768</ele>
        <time>2025-04-09T03:50:46.999Z</time>
      </trkpt>
      <trkpt lat="43.230721" lon="76.974975">
        <ele>1080.973355</ele>
        <time>2025-04-09T03:50:47.999Z</time>
      </trkpt>
      <trkpt lat="43.230737" lon="76.974987">
        <ele>1081.158943</ele>
        <time>2025-04-09T03:50:48.999Z</time>
      </trkpt>
      <trkpt lat="43.230754" lon="76.974998">
        <ele>1081.350246</ele>
        <time>2025-04-09T03:50:49.999Z</time>
      </trkpt>
      <trkpt lat="43.230772" lon="76.975010">
        <ele>1081.553932</ele>
        <time>2025-04-09T03:50:50.999Z</time>
      </trkpt>
      <trkpt lat="43.230790" lon="76.975021">
        <ele>1081.751827</ele>
        <time>2025-04-09T03:50:51.999Z</time>
      </trkpt>
      <trkpt lat="43.230808" lon="76.975031">
        <ele>1081.944899</ele>
        <time>2025-04-09T03:50:52.999Z</time>
      </trkpt>
      <trkpt lat="43.230827" lon="76.975040">
        <ele>1082.144741</ele>
        <time>2025-04-09T03:50:53.999Z</time>
      </trkpt>
      <trkpt lat="43.230846" lon="76.975048">
        <ele>1082.342339</ele>
        <time>2025-04-09T03:50:54.999Z</time>
      </trkpt>
      <trkpt lat="43.230865" lon="76.975055">
        <ele>1082.537936</ele>
        <time>2025-04-09T03:50:55.999Z</time>
      </trkpt>
      <trkpt lat="43.230884" lon="76.975061">
        <ele>1082.731780</ele>
        <time>2025-04-09T03:50:56.999Z</time>
      </trkpt>
      <trkpt lat="43.230902" lon="76.975066">
        <ele>1082.914374</ele>
        <time>2025-04-09T03:50:57.999Z</time>
      </trkpt>
      <trkpt lat="43.230919" lon="76.975070">
        <ele>1083.085864</ele>
        <time>2025-04-09T03:50:58.999Z</time>
      </trkpt>
      <trkpt lat="43.230937" lon="76.975072">
        <ele>1083.265415</ele>
        <time>2025-04-09T03:50:59.999Z</time>
      </trkpt>
      <trkpt lat="43.230954" lon="76.975074">
        <ele>1083.435058</ele>
        <time>2025-04-09T03:51:00.999Z</time>
      </trkpt>
      <trkpt lat="43.230971" lon="76.975075">
        <ele>1083.604237</ele>
        <time>2025-04-09T03:51:01.999Z</time>
      </trkpt>
      <trkpt lat="43.230987" lon="76.975075">
        <ele>1083.763318</ele>
        <time>2025-04-09T03:51:02.999Z</time>
      </trkpt>
      <trkpt lat="43.231004" lon="76.975074">
        <ele>1083.932497</ele>
        <time>2025-04-09T03:51:03.999Z</time>
      </trkpt>
      <trkpt lat="43.231020" lon="76.975074">
        <ele>1084.091577</ele>
        <time>2025-04-09T03:51:04.999Z</time>
      </trkpt>
      <trkpt lat="43.231038" lon="76.975073">
        <ele>1084.270690</ele>
        <time>2025-04-09T03:51:05.999Z</time>
      </trkpt>
      <trkpt lat="43.231056" lon="76.975073">
        <ele>1084.449656</ele>
        <time>2025-04-09T03:51:06.998Z</time>
      </trkpt>
      <trkpt lat="43.231075" lon="76.975073">
        <ele>1084.638565</ele>
        <time>2025-04-09T03:51:07.998Z</time>
      </trkpt>
      <trkpt lat="43.231095" lon="76.975073">
        <ele>1084.837416</ele>
        <time>2025-04-09T03:51:08.998Z</time>
      </trkpt>
      <trkpt lat="43.231116" lon="76.975073">
        <ele>1085.046209</ele>
        <time>2025-04-09T03:51:09.998Z</time>
      </trkpt>
      <trkpt lat="43.231138" lon="76.975073">
        <ele>1085.264946</ele>
        <time>2025-04-09T03:51:10.998Z</time>
      </trkpt>
      <trkpt lat="43.231160" lon="76.975074">
        <ele>1085.483802</ele>
        <time>2025-04-09T03:51:11.998Z</time>
      </trkpt>
      <trkpt lat="43.231182" lon="76.975074">
        <ele>1085.702538</ele>
        <time>2025-04-09T03:51:12.998Z</time>
      </trkpt>
      <trkpt lat="43.231205" lon="76.975073">
        <ele>1085.931332</ele>
        <time>2025-04-09T03:51:13.998Z</time>
      </trkpt>
      <trkpt lat="43.231227" lon="76.975073">
        <ele>1086.150068</ele>
        <time>2025-04-09T03:51:14.998Z</time>
      </trkpt>
      <trkpt lat="43.231249" lon="76.975072">
        <ele>1086.368924</ele>
        <time>2025-04-09T03:51:15.998Z</time>
      </trkpt>
      <trkpt lat="43.231270" lon="76.975071">
        <ele>1086.577843</ele>
        <time>2025-04-09T03:51:16.998Z</time>
      </trkpt>
      <trkpt lat="43.231290" lon="76.975070">
        <ele>1086.776826</ele>
        <time>2025-04-09T03:51:17.998Z</time>
      </trkpt>
      <trkpt lat="43.231308" lon="76.975070">
        <ele>1086.955792</ele>
        <time>2025-04-09T03:51:18.998Z</time>
      </trkpt>
      <trkpt lat="43.231324" lon="76.975069">
        <ele>1087.115038</ele>
        <time>2025-04-09T03:51:19.998Z</time>
      </trkpt>
      <trkpt lat="43.231336" lon="76.975068">
        <ele>1087.234568</ele>
        <time>2025-04-09T03:51:20.998Z</time>
      </trkpt>
      <trkpt lat="43.231345" lon="76.975068">
        <ele>1087.324051</ele>
        <time>2025-04-09T03:51:21.998Z</time>
      </trkpt>
      <trkpt lat="43.231352" lon="76.975068">
        <ele>1087.393649</ele>
        <time>2025-04-09T03:51:22.998Z</time>
      </trkpt>
      <trkpt lat="43.231356" lon="76.975068">
        <ele>1087.433419</ele>
        <time>2025-04-09T03:51:23.998Z</time>
      </trkpt>
      <trkpt lat="43.231358" lon="76.975069">
        <ele>1087.454583</ele>
        <time>2025-04-09T03:51:24.998Z</time>
      </trkpt>
      <trkpt lat="43.231359" lon="76.975070">
        <ele>1087.466885</ele>
        <time>2025-04-09T03:51:25.998Z</time>
      </trkpt>
      <trkpt lat="43.231360" lon="76.975071">
        <ele>1087.479186</ele>
        <time>2025-04-09T03:51:26.998Z</time>
      </trkpt>
      <trkpt lat="43.231360" lon="76.975072">
        <ele>1087.486430</ele>
        <time>2025-04-09T03:51:27.998Z</time>
      </trkpt>
      <trkpt lat="43.231359" lon="76.975073">
        <ele>1087.498732</ele>
        <time>2025-04-09T03:51:28.998Z</time>
      </trkpt>
      <trkpt lat="43.231359" lon="76.975073">
        <ele>1087.498732</ele>
        <time>2025-04-09T03:51:29.998Z</time>
      </trkpt>
      <trkpt lat="43.231358" lon="76.975073">
        <ele>1087.508675</ele>
        <time>2025-04-09T03:51:30.998Z</time>
      </trkpt>
      <trkpt lat="43.231358" lon="76.975073">
        <ele>1087.508675</ele>
        <time>2025-04-09T03:51:31.998Z</time>
      </trkpt>
      <trkpt lat="43.231357" lon="76.975073">
        <ele>1087.518617</ele>
        <time>2025-04-09T03:51:32.998Z</time>
      </trkpt>
      <trkpt lat="43.231356" lon="76.975072">
        <ele>1087.530919</ele>
        <time>2025-04-09T03:51:33.998Z</time>
      </trkpt>
      <trkpt lat="43.231356" lon="76.975071">
        <ele>1087.538163</ele>
        <time>2025-04-09T03:51:34.998Z</time>
      </trkpt>
      <trkpt lat="43.231355" lon="76.975069">
        <ele>1087.555735</ele>
        <time>2025-04-09T03:51:35.998Z</time>
      </trkpt>
      <trkpt lat="43.231354" lon="76.975068">
        <ele>1087.568036</ele>
        <time>2025-04-09T03:51:36.998Z</time>
      </trkpt>
      <trkpt lat="43.231353" lon="76.975066">
        <ele>1087.585608</ele>
        <time>2025-04-09T03:51:37.998Z</time>
      </trkpt>
      <trkpt lat="43.231353" lon="76.975063">
        <ele>1087.607340</ele>
        <time>2025-04-09T03:51:38.998Z</time>
      </trkpt>
      <trkpt lat="43.231352" lon="76.975061">
        <ele>1087.624912</ele>
        <time>2025-04-09T03:51:39.998Z</time>
      </trkpt>
      <trkpt lat="43.231351" lon="76.975059">
        <ele>1087.642483</ele>
        <time>2025-04-09T03:51:40.998Z</time>
      </trkpt>
      <trkpt lat="43.231350" lon="76.975057">
        <ele>1087.660055</ele>
        <time>2025-04-09T03:51:41.998Z</time>
      </trkpt>
      <trkpt lat="43.231350" lon="76.975056">
        <ele>1087.667299</ele>
        <time>2025-04-09T03:51:43.000Z</time>
      </trkpt>
      <trkpt lat="43.231349" lon="76.975054">
        <ele>1087.684871</ele>
        <time>2025-04-09T03:51:44.000Z</time>
      </trkpt>
      <trkpt lat="43.231348" lon="76.975053">
        <ele>1087.697172</ele>
        <time>2025-04-09T03:51:45.000Z</time>
      </trkpt>
      <trkpt lat="43.231348" lon="76.975052">
        <ele>1087.704416</ele>
        <time>2025-04-09T03:51:46.000Z</time>
      </trkpt>
      <trkpt lat="43.231347" lon="76.975051">
        <ele>1087.716718</ele>
        <time>2025-04-09T03:51:47.000Z</time>
      </trkpt>
      <trkpt lat="43.231347" lon="76.975050">
        <ele>1087.723962</ele>
        <time>2025-04-09T03:51:48.000Z</time>
      </trkpt>
      <trkpt lat="43.231346" lon="76.975050">
        <ele>1087.733905</ele>
        <time>2025-04-09T03:51:49.000Z</time>
      </trkpt>
      <trkpt lat="43.231346" lon="76.975049">
        <ele>1087.741149</ele>
        <time>2025-04-09T03:51:50.000Z</time>
      </trkpt>
      <trkpt lat="43.231346" lon="76.975049">
        <ele>1087.741149</ele>
        <time>2025-04-09T03:51:50.999Z</time>
      </trkpt>
      <trkpt lat="43.231345" lon="76.975049">
        <ele>1087.751091</ele>
        <time>2025-04-09T03:51:51.999Z</time>
      </trkpt>
      <trkpt lat="43.231345" lon="76.975049">
        <ele>1087.751091</ele>
        <time>2025-04-09T03:51:52.999Z</time>
      </trkpt>
      <trkpt lat="43.231345" lon="76.975049">
        <ele>1087.751091</ele>
        <time>2025-04-09T03:51:53.999Z</time>
      </trkpt>
      <trkpt lat="43.231345" lon="76.975049">
        <ele>1087.751091</ele>
        <time>2025-04-09T03:51:54.999Z</time>
      </trkpt>
      <trkpt lat="43.231345" lon="76.975049">
        <ele>1087.751091</ele>
        <time>2025-04-09T03:51:55.999Z</time>
      </trkpt>
      <trkpt lat="43.231345" lon="76.975049">
        <ele>1087.751091</ele>
        <time>2025-04-09T03:51:56.999Z</time>
      </trkpt>
      <trkpt lat="43.231345" lon="76.975049">
        <ele>1087.751091</ele>
        <time>2025-04-09T03:51:57.999Z</time>
      </trkpt>
      <trkpt lat="43.231345" lon="76.975049">
        <ele>1087.751091</ele>
        <time>2025-04-09T03:51:58.999Z</time>
      </trkpt>
      <trkpt lat="43.231345" lon="76.975049">
        <ele>1087.751091</ele>
        <time>2025-04-09T03:51:59.999Z</time>
      </trkpt>
      <trkpt lat="43.231345" lon="76.975049">
        <ele>1087.751091</ele>
        <time>2025-04-09T03:52:00.999Z</time>
      </trkpt>
      <trkpt lat="43.231345" lon="76.975049">
        <ele>1087.751091</ele>
        <time>2025-04-09T03:52:01.999Z</time>
      </trkpt>
      <trkpt lat="43.231345" lon="76.975049">
        <ele>1087.751091</ele>
        <time>2025-04-09T03:52:03.000Z</time>
      </trkpt>
      <trkpt lat="43.231345" lon="76.975049">
        <ele>1087.751091</ele>
        <time>2025-04-09T03:52:04.000Z</time>
      </trkpt>
      <trkpt lat="43.231345" lon="76.975049">
        <ele>1087.751091</ele>
        <time>2025-04-09T03:52:05.000Z</time>
      </trkpt>
      <trkpt lat="43.231345" lon="76.975049">
        <ele>1087.751091</ele>
        <time>2025-04-09T03:52:06.000Z</time>
      </trkpt>
      <trkpt lat="43.231345" lon="76.975049">
        <ele>1087.751091</ele>
        <time>2025-04-09T03:52:07.000Z</time>
      </trkpt>
      <trkpt lat="43.231345" lon="76.975049">
        <ele>1087.751091</ele>
        <time>2025-04-09T03:52:08.000Z</time>
      </trkpt>
      <trkpt lat="43.231345" lon="76.975049">
        <ele>1087.751091</ele>
        <time>2025-04-09T03:52:09.000Z</time>
      </trkpt>
      <trkpt lat="43.231345" lon="76.975049">
        <ele>1087.751091</ele>
        <time>2025-04-09T03:52:10.000Z</time>
      </trkpt>
      <trkpt lat="43.231345" lon="76.975049">
        <ele>1087.751091</ele>
        <time>2025-04-09T03:52:11.000Z</time>
      </trkpt>
      <trkpt lat="43.231345" lon="76.975049">
        <ele>1087.751091</ele>
        <time>2025-04-09T03:52:12.000Z</time>
      </trkpt>
      <trkpt lat="43.231345" lon="76.975049">
        <ele>1087.751091</ele>
        <time>2025-04-09T03:52:13.000Z</time>
      </trkpt>
      <trkpt lat="43.231345" lon="76.975049">
        <ele>1087.751091</ele>
        <time>2025-04-09T03:52:14.000Z</time>
      </trkpt>
      <trkpt lat="43.231345" lon="76.975049">
        <ele>1087.751091</ele>
        <time>2025-04-09T03:52:14.999Z</time>
      </trkpt>
      <trkpt lat="43.231345" lon="76.975049">
        <ele>1087.751091</ele>
        <time>2025-04-09T03:52:15.999Z</time>
      </trkpt>
      <trkpt lat="43.231345" lon="76.975049">
        <ele>1087.751091</ele>
        <time>2025-04-09T03:52:16.999Z</time>
      </trkpt>
      <trkpt lat="43.231345" lon="76.975049">
        <ele>1087.751091</ele>
        <time>2025-04-09T03:52:17.999Z</time>
      </trkpt>
      <trkpt lat="43.231345" lon="76.975049">
        <ele>1087.751091</ele>
        <time>2025-04-09T03:52:18.999Z</time>
      </trkpt>
      <trkpt lat="43.231345" lon="76.975049">
        <ele>1087.751091</ele>
        <time>2025-04-09T03:52:19.999Z</time>
      </trkpt>
      <trkpt lat="43.231345" lon="76.975049">
        <ele>1087.751091</ele>
        <time>2025-04-09T03:52:20.999Z</time>
      </trkpt>
      <trkpt lat="43.231345" lon="76.975049">
        <ele>1087.751091</ele>
        <time>2025-04-09T03:52:21.999Z</time>
      </trkpt>
      <trkpt lat="43.231345" lon="76.975049">
        <ele>1087.751091</ele>
        <time>2025-04-09T03:52:22.999Z</time>
      </trkpt>
      <trkpt lat="43.231345" lon="76.975049">
        <ele>1087.751091</ele>
        <time>2025-04-09T03:52:23.999Z</time>
      </trkpt>
      <trkpt lat="43.231345" lon="76.975049">
        <ele>1087.751091</ele>
        <time>2025-04-09T03:52:24.999Z</time>
      </trkpt>
      <trkpt lat="43.231345" lon="76.975049">
        <ele>1087.751091</ele>
        <time>2025-04-09T03:52:25.999Z</time>
      </trkpt>
      <trkpt lat="43.231345" lon="76.975049">
        <ele>1087.751091</ele>
        <time>2025-04-09T03:52:26.999Z</time>
      </trkpt>
      <trkpt lat="43.231345" lon="76.975049">
        <ele>1087.751091</ele>
        <time>2025-04-09T03:52:27.999Z</time>
      </trkpt>
      <trkpt lat="43.231345" lon="76.975050">
        <ele>1087.758335</ele>
        <time>2025-04-09T03:52:28.999Z</time>
      </trkpt>
      <trkpt lat="43.231345" lon="76.975050">
        <ele>1087.758335</ele>
        <time>2025-04-09T03:52:29.999Z</time>
      </trkpt>
      <trkpt lat="43.231345" lon="76.975050">
        <ele>1087.758335</ele>
        <time>2025-04-09T03:52:30.999Z</time>
      </trkpt>
      <trkpt lat="43.231345" lon="76.975050">
        <ele>1087.758335</ele>
        <time>2025-04-09T03:52:31.999Z</time>
      </trkpt>
      <trkpt lat="43.231346" lon="76.975050">
        <ele>1087.768278</ele>
        <time>2025-04-09T03:52:32.999Z</time>
      </trkpt>
      <trkpt lat="43.231347" lon="76.975050">
        <ele>1087.778221</ele>
        <time>2025-04-09T03:52:33.999Z</time>
      </trkpt>
      <trkpt lat="43.231348" lon="76.975050">
        <ele>1087.788163</ele>
        <time>2025-04-09T03:52:34.999Z</time>
      </trkpt>
      <trkpt lat="43.231349" lon="76.975049">
        <ele>1087.800465</ele>
        <time>2025-04-09T03:52:35.999Z</time>
      </trkpt>
      <trkpt lat="43.231351" lon="76.975047">
        <ele>1087.825068</ele>
        <time>2025-04-09T03:52:36.999Z</time>
      </trkpt>
      <trkpt lat="43.231354" lon="76.975045">
        <ele>1087.858228</ele>
        <time>2025-04-09T03:52:37.999Z</time>
      </trkpt>
      <trkpt lat="43.231358" lon="76.975042">
        <ele>1087.903549</ele>
        <time>2025-04-09T03:52:38.999Z</time>
      </trkpt>
      <trkpt lat="43.231363" lon="76.975037">
        <ele>1087.965057</ele>
        <time>2025-04-09T03:52:39.999Z</time>
      </trkpt>
      <trkpt lat="43.231368" lon="76.975031">
        <ele>1088.031092</ele>
        <time>2025-04-09T03:52:40.999Z</time>
      </trkpt>
      <trkpt lat="43.231375" lon="76.975023">
        <ele>1088.121659</ele>
        <time>2025-04-09T03:52:41.999Z</time>
      </trkpt>
      <trkpt lat="43.231382" lon="76.975012">
        <ele>1088.227458</ele>
        <time>2025-04-09T03:52:42.999Z</time>
      </trkpt>
      <trkpt lat="43.231390" lon="76.974998">
        <ele>1088.356346</ele>
        <time>2025-04-09T03:52:43.999Z</time>
      </trkpt>
      <trkpt lat="43.231397" lon="76.974982">
        <ele>1088.491542</ele>
        <time>2025-04-09T03:52:44.999Z</time>
      </trkpt>
      <trkpt lat="43.231403" lon="76.974963">
        <ele>1088.641551</ele>
        <time>2025-04-09T03:52:45.999Z</time>
      </trkpt>
      <trkpt lat="43.231408" lon="76.974943">
        <ele>1088.794725</ele>
        <time>2025-04-09T03:52:46.999Z</time>
      </trkpt>
      <trkpt lat="43.231412" lon="76.974920">
        <ele>1088.966019</ele>
        <time>2025-04-09T03:52:47.999Z</time>
      </trkpt>
      <trkpt lat="43.231415" lon="76.974897">
        <ele>1089.135282</ele>
        <time>2025-04-09T03:52:48.999Z</time>
      </trkpt>
      <trkpt lat="43.231418" lon="76.974873">
        <ele>1089.311680</ele>
        <time>2025-04-09T03:52:49.999Z</time>
      </trkpt>
      <trkpt lat="43.231422" lon="76.974850">
        <ele>1089.482974</ele>
        <time>2025-04-09T03:52:50.999Z</time>
      </trkpt>
      <trkpt lat="43.231428" lon="76.974826">
        <ele>1089.666782</ele>
        <time>2025-04-09T03:52:51.999Z</time>
      </trkpt>
      <trkpt lat="43.231434" lon="76.974804">
        <ele>1089.836951</ele>
        <time>2025-04-09T03:52:52.999Z</time>
      </trkpt>
      <trkpt lat="43.231443" lon="76.974783">
        <ele>1090.013443</ele>
        <time>2025-04-09T03:52:53.999Z</time>
      </trkpt>
      <trkpt lat="43.231452" lon="76.974765">
        <ele>1090.171587</ele>
        <time>2025-04-09T03:52:54.999Z</time>
      </trkpt>
      <trkpt lat="43.231464" lon="76.974749">
        <ele>1090.337928</ele>
        <time>2025-04-09T03:52:55.999Z</time>
      </trkpt>
      <trkpt lat="43.231478" lon="76.974735">
        <ele>1090.510151</ele>
        <time>2025-04-09T03:52:56.999Z</time>
      </trkpt>
      <trkpt lat="43.231493" lon="76.974725">
        <ele>1090.675952</ele>
        <time>2025-04-09T03:52:57.999Z</time>
      </trkpt>
      <trkpt lat="43.231509" lon="76.974718">
        <ele>1090.842919</ele>
        <time>2025-04-09T03:52:58.999Z</time>
      </trkpt>
      <trkpt lat="43.231526" lon="76.974715">
        <ele>1091.013334</ele>
        <time>2025-04-09T03:52:59.999Z</time>
      </trkpt>
      <trkpt lat="43.231544" lon="76.974714">
        <ele>1091.192446</ele>
        <time>2025-04-09T03:53:00.999Z</time>
      </trkpt>
      <trkpt lat="43.231563" lon="76.974717">
        <ele>1091.382601</ele>
        <time>2025-04-09T03:53:01.999Z</time>
      </trkpt>
      <trkpt lat="43.231581" lon="76.974721">
        <ele>1091.563897</ele>
        <time>2025-04-09T03:53:02.999Z</time>
      </trkpt>
      <trkpt lat="43.231600" lon="76.974728">
        <ele>1091.759493</ele>
        <time>2025-04-09T03:53:03.999Z</time>
      </trkpt>
      <trkpt lat="43.231619" lon="76.974736">
        <ele>1091.957091</ele>
        <time>2025-04-09T03:53:04.999Z</time>
      </trkpt>
      <trkpt lat="43.231637" lon="76.974746">
        <ele>1092.150163</ele>
        <time>2025-04-09T03:53:05.999Z</time>
      </trkpt>
      <trkpt lat="43.231656" lon="76.974756">
        <ele>1092.352484</ele>
        <time>2025-04-09T03:53:06.999Z</time>
      </trkpt>
      <trkpt lat="43.231674" lon="76.974767">
        <ele>1092.548388</ele>
        <time>2025-04-09T03:53:07.998Z</time>
      </trkpt>
      <trkpt lat="43.231691" lon="76.974777">
        <ele>1092.732281</ele>
        <time>2025-04-09T03:53:08.998Z</time>
      </trkpt>
      <trkpt lat="43.231709" lon="76.974788">
        <ele>1092.928185</ele>
        <time>2025-04-09T03:53:09.998Z</time>
      </trkpt>
      <trkpt lat="43.231726" lon="76.974799">
        <ele>1093.115050</ele>
        <time>2025-04-09T03:53:10.998Z</time>
      </trkpt>
      <trkpt lat="43.231742" lon="76.974810">
        <ele>1093.292973</ele>
        <time>2025-04-09T03:53:11.998Z</time>
      </trkpt>
      <trkpt lat="43.231759" lon="76.974821">
        <ele>1093.479838</ele>
        <time>2025-04-09T03:53:12.998Z</time>
      </trkpt>
      <trkpt lat="43.231775" lon="76.974830">
        <ele>1093.651760</ele>
        <time>2025-04-09T03:53:13.998Z</time>
      </trkpt>
      <trkpt lat="43.231792" lon="76.974839">
        <ele>1093.832922</ele>
        <time>2025-04-09T03:53:14.998Z</time>
      </trkpt>
      <trkpt lat="43.231808" lon="76.974848">
        <ele>1094.004844</ele>
        <time>2025-04-09T03:53:15.998Z</time>
      </trkpt>
      <trkpt lat="43.231824" lon="76.974857">
        <ele>1094.176766</ele>
        <time>2025-04-09T03:53:16.998Z</time>
      </trkpt>
      <trkpt lat="43.231840" lon="76.974865">
        <ele>1094.346074</ele>
        <time>2025-04-09T03:53:17.998Z</time>
      </trkpt>
      <trkpt lat="43.231856" lon="76.974874">
        <ele>1094.517996</ele>
        <time>2025-04-09T03:53:18.998Z</time>
      </trkpt>
      <trkpt lat="43.231872" lon="76.974883">
        <ele>1094.689919</ele>
        <time>2025-04-09T03:53:19.998Z</time>
      </trkpt>
      <trkpt lat="43.231887" lon="76.974893">
        <ele>1094.855719</ele>
        <time>2025-04-09T03:53:20.998Z</time>
      </trkpt>
      <trkpt lat="43.231903" lon="76.974903">
        <ele>1095.030517</ele>
        <time>2025-04-09T03:53:21.998Z</time>
      </trkpt>
      <trkpt lat="43.231918" lon="76.974915">
        <ele>1095.203140</ele>
        <time>2025-04-09T03:53:22.998Z</time>
      </trkpt>
      <trkpt lat="43.231933" lon="76.974927">
        <ele>1095.375764</ele>
        <time>2025-04-09T03:53:23.998Z</time>
      </trkpt>
      <trkpt lat="43.231949" lon="76.974941">
        <ele>1095.564422</ele>
        <time>2025-04-09T03:53:24.998Z</time>
      </trkpt>
      <trkpt lat="43.231965" lon="76.974955">
        <ele>1095.753080</ele>
        <time>2025-04-09T03:53:25.998Z</time>
      </trkpt>
      <trkpt lat="43.231981" lon="76.974969">
        <ele>1095.941739</ele>
        <time>2025-04-09T03:53:26.998Z</time>
      </trkpt>
      <trkpt lat="43.231997" lon="76.974984">
        <ele>1096.134388</ele>
        <time>2025-04-09T03:53:27.998Z</time>
      </trkpt>
      <trkpt lat="43.232014" lon="76.974999">
        <ele>1096.335326</ele>
        <time>2025-04-09T03:53:28.998Z</time>
      </trkpt>
      <trkpt lat="43.232032" lon="76.975014">
        <ele>1096.544696</ele>
        <time>2025-04-09T03:53:29.998Z</time>
      </trkpt>
      <trkpt lat="43.232049" lon="76.975029">
        <ele>1096.745633</ele>
        <time>2025-04-09T03:53:30.998Z</time>
      </trkpt>
      <trkpt lat="43.232067" lon="76.975043">
        <ele>1096.951337</ele>
        <time>2025-04-09T03:53:31.998Z</time>
      </trkpt>
      <trkpt lat="43.232085" lon="76.975056">
        <ele>1097.153568</ele>
        <time>2025-04-09T03:53:32.998Z</time>
      </trkpt>
      <trkpt lat="43.232103" lon="76.975069">
        <ele>1097.355798</ele>
        <time>2025-04-09T03:53:33.998Z</time>
      </trkpt>
      <trkpt lat="43.232121" lon="76.975081">
        <ele>1097.554759</ele>
        <time>2025-04-09T03:53:34.998Z</time>
      </trkpt>
      <trkpt lat="43.232138" lon="76.975092">
        <ele>1097.741624</ele>
        <time>2025-04-09T03:53:35.998Z</time>
      </trkpt>
      <trkpt lat="43.232155" lon="76.975103">
        <ele>1097.928488</ele>
        <time>2025-04-09T03:53:36.998Z</time>
      </trkpt>
      <trkpt lat="43.232171" lon="76.975113">
        <ele>1098.103286</ele>
        <time>2025-04-09T03:53:37.998Z</time>
      </trkpt>
      <trkpt lat="43.232188" lon="76.975123">
        <ele>1098.287179</ele>
        <time>2025-04-09T03:53:38.998Z</time>
      </trkpt>
      <trkpt lat="43.232204" lon="76.975133">
        <ele>1098.461977</ele>
        <time>2025-04-09T03:53:39.998Z</time>
      </trkpt>
      <trkpt lat="43.232221" lon="76.975143">
        <ele>1098.645869</ele>
        <time>2025-04-09T03:53:40.998Z</time>
      </trkpt>
      <trkpt lat="43.232237" lon="76.975153">
        <ele>1098.820667</ele>
        <time>2025-04-09T03:53:41.998Z</time>
      </trkpt>
      <trkpt lat="43.232254" lon="76.975164">
        <ele>1099.007532</ele>
        <time>2025-04-09T03:53:42.998Z</time>
      </trkpt>
      <trkpt lat="43.232271" lon="76.975176">
        <ele>1099.197598</ele>
        <time>2025-04-09T03:53:43.998Z</time>
      </trkpt>
      <trkpt lat="43.232288" lon="76.975188">
        <ele>1099.387665</ele>
        <time>2025-04-09T03:53:44.998Z</time>
      </trkpt>
      <trkpt lat="43.232305" lon="76.975201">
        <ele>1099.522864</ele>
        <time>2025-04-09T03:53:45.998Z</time>
      </trkpt>
      <trkpt lat="43.232322" lon="76.975215">
        <ele>1099.522864</ele>
        <time>2025-04-09T03:53:46.998Z</time>
      </trkpt>
      <trkpt lat="43.232339" lon="76.975229">
        <ele>1099.522864</ele>
        <time>2025-04-09T03:53:47.998Z</time>
      </trkpt>
      <trkpt lat="43.232357" lon="76.975243">
        <ele>1099.522864</ele>
        <time>2025-04-09T03:53:49.000Z</time>
      </trkpt>
      <trkpt lat="43.232374" lon="76.975258">
        <ele>1099.522864</ele>
        <time>2025-04-09T03:53:50.000Z</time>
      </trkpt>
      <trkpt lat="43.232393" lon="76.975273">
        <ele>1099.522864</ele>
        <time>2025-04-09T03:53:51.000Z</time>
      </trkpt>
      <trkpt lat="43.232411" lon="76.975288">
        <ele>1099.522864</ele>
        <time>2025-04-09T03:53:52.000Z</time>
      </trkpt>
      <trkpt lat="43.232430" lon="76.975304">
        <ele>1099.522864</ele>
        <time>2025-04-09T03:53:53.000Z</time>
      </trkpt>
      <trkpt lat="43.232449" lon="76.975319">
        <ele>1099.522864</ele>
        <time>2025-04-09T03:53:54.000Z</time>
      </trkpt>
      <trkpt lat="43.232468" lon="76.975334">
        <ele>1099.522864</ele>
        <time>2025-04-09T03:53:55.000Z</time>
      </trkpt>
      <trkpt lat="43.232486" lon="76.975349">
        <ele>1099.522864</ele>
        <time>2025-04-09T03:53:56.000Z</time>
      </trkpt>
      <trkpt lat="43.232505" lon="76.975362">
        <ele>1099.522864</ele>
        <time>2025-04-09T03:53:57.000Z</time>
      </trkpt>
      <trkpt lat="43.232523" lon="76.975376">
        <ele>1099.522864</ele>
        <time>2025-04-09T03:53:58.000Z</time>
      </trkpt>
      <trkpt lat="43.232542" lon="76.975390">
        <ele>1099.522864</ele>
        <time>2025-04-09T03:53:59.000Z</time>
      </trkpt>
      <trkpt lat="43.232561" lon="76.975403">
        <ele>1099.522864</ele>
        <time>2025-04-09T03:54:00.000Z</time>
      </trkpt>
      <trkpt lat="43.232581" lon="76.975417">
        <ele>1099.522864</ele>
        <time>2025-04-09T03:54:01.000Z</time>
      </trkpt>
      <trkpt lat="43.232600" lon="76.975429">
        <ele>1099.522864</ele>
        <time>2025-04-09T03:54:02.000Z</time>
      </trkpt>
      <trkpt lat="43.232620" lon="76.975441">
        <ele>1099.522864</ele>
        <time>2025-04-09T03:54:03.000Z</time>
      </trkpt>
      <trkpt lat="43.232639" lon="76.975453">
        <ele>1099.522864</ele>
        <time>2025-04-09T03:54:04.000Z</time>
      </trkpt>
      <trkpt lat="43.232659" lon="76.975465">
        <ele>1099.522864</ele>
        <time>2025-04-09T03:54:05.000Z</time>
      </trkpt>
      <trkpt lat="43.232678" lon="76.975477">
        <ele>1099.522864</ele>
        <time>2025-04-09T03:54:06.000Z</time>
      </trkpt>
      <trkpt lat="43.232698" lon="76.975489">
        <ele>1099.522864</ele>
        <time>2025-04-09T03:54:07.000Z</time>
      </trkpt>
      <trkpt lat="43.232717" lon="76.975502">
        <ele>1099.522864</ele>
        <time>2025-04-09T03:54:08.000Z</time>
      </trkpt>
      <trkpt lat="43.232736" lon="76.975516">
        <ele>1099.522864</ele>
        <time>2025-04-09T03:54:09.000Z</time>
      </trkpt>
      <trkpt lat="43.232754" lon="76.975529">
        <ele>1099.522864</ele>
        <time>2025-04-09T03:54:10.000Z</time>
      </trkpt>
      <trkpt lat="43.232772" lon="76.975542">
        <ele>1099.522864</ele>
        <time>2025-04-09T03:54:11.000Z</time>
      </trkpt>
      <trkpt lat="43.232790" lon="76.975555">
        <ele>1099.522864</ele>
        <time>2025-04-09T03:54:12.000Z</time>
      </trkpt>
      <trkpt lat="43.232808" lon="76.975568">
        <ele>1099.522864</ele>
        <time>2025-04-09T03:54:13.000Z</time>
      </trkpt>
      <trkpt lat="43.232826" lon="76.975579">
        <ele>1099.522864</ele>
        <time>2025-04-09T03:54:14.000Z</time>
      </trkpt>
      <trkpt lat="43.232843" lon="76.975591">
        <ele>1099.522864</ele>
        <time>2025-04-09T03:54:15.000Z</time>
      </trkpt>
      <trkpt lat="43.232860" lon="76.975602">
        <ele>1099.522864</ele>
        <time>2025-04-09T03:54:16.000Z</time>
      </trkpt>
      <trkpt lat="43.232877" lon="76.975614">
        <ele>1099.522864</ele>
        <time>2025-04-09T03:54:17.000Z</time>
      </trkpt>
      <trkpt lat="43.232894" lon="76.975625">
        <ele>1099.522864</ele>
        <time>2025-04-09T03:54:18.000Z</time>
      </trkpt>
      <trkpt lat="43.232910" lon="76.975636">
        <ele>1099.522864</ele>
        <time>2025-04-09T03:54:19.000Z</time>
      </trkpt>
      <trkpt lat="43.232926" lon="76.975647">
        <ele>1099.522864</ele>
        <time>2025-04-09T03:54:20.000Z</time>
      </trkpt>
      <trkpt lat="43.232942" lon="76.975659">
        <ele>1099.522864</ele>
        <time>2025-04-09T03:54:21.000Z</time>
      </trkpt>
      <trkpt lat="43.232957" lon="76.975670">
        <ele>1099.522864</ele>
        <time>2025-04-09T03:54:21.999Z</time>
      </trkpt>
      <trkpt lat="43.232972" lon="76.975680">
        <ele>1099.522864</ele>
        <time>2025-04-09T03:54:22.999Z</time>
      </trkpt>
      <trkpt lat="43.232987" lon="76.975691">
        <ele>1099.522864</ele>
        <time>2025-04-09T03:54:23.999Z</time>
      </trkpt>
      <trkpt lat="43.233002" lon="76.975701">
        <ele>1099.522864</ele>
        <time>2025-04-09T03:54:24.999Z</time>
      </trkpt>
      <trkpt lat="43.233016" lon="76.975710">
        <ele>1099.522864</ele>
        <time>2025-04-09T03:54:25.999Z</time>
      </trkpt>
      <trkpt lat="43.233031" lon="76.975720">
        <ele>1099.522864</ele>
        <time>2025-04-09T03:54:26.999Z</time>
      </trkpt>
      <trkpt lat="43.233046" lon="76.975729">
        <ele>1099.522864</ele>
        <time>2025-04-09T03:54:27.999Z</time>
      </trkpt>
      <trkpt lat="43.233062" lon="76.975739">
        <ele>1099.522864</ele>
        <time>2025-04-09T03:54:28.999Z</time>
      </trkpt>
      <trkpt lat="43.233078" lon="76.975749">
        <ele>1099.522864</ele>
        <time>2025-04-09T03:54:29.999Z</time>
      </trkpt>
      <trkpt lat="43.233094" lon="76.975760">
        <ele>1099.522864</ele>
        <time>2025-04-09T03:54:30.999Z</time>
      </trkpt>
      <trkpt lat="43.233110" lon="76.975771">
        <ele>1099.522864</ele>
        <time>2025-04-09T03:54:31.999Z</time>
      </trkpt>
      <trkpt lat="43.233126" lon="76.975784">
        <ele>1099.522864</ele>
        <time>2025-04-09T03:54:32.999Z</time>
      </trkpt>
      <trkpt lat="43.233143" lon="76.975796">
        <ele>1099.522864</ele>
        <time>2025-04-09T03:54:33.999Z</time>
      </trkpt>
      <trkpt lat="43.233160" lon="76.975809">
        <ele>1099.522864</ele>
        <time>2025-04-09T03:54:34.999Z</time>
      </trkpt>
      <trkpt lat="43.233177" lon="76.975822">
        <ele>1099.522864</ele>
        <time>2025-04-09T03:54:35.999Z</time>
      </trkpt>
      <trkpt lat="43.233194" lon="76.975836">
        <ele>1099.522864</ele>
        <time>2025-04-09T03:54:36.999Z</time>
      </trkpt>
      <trkpt lat="43.233211" lon="76.975848">
        <ele>1099.522864</ele>
        <time>2025-04-09T03:54:37.999Z</time>
      </trkpt>
      <trkpt lat="43.233227" lon="76.975860">
        <ele>1099.522864</ele>
        <time>2025-04-09T03:54:38.999Z</time>
      </trkpt>
      <trkpt lat="43.233244" lon="76.975871">
        <ele>1099.522864</ele>
        <time>2025-04-09T03:54:39.999Z</time>
      </trkpt>
      <trkpt lat="43.233262" lon="76.975880">
        <ele>1099.522864</ele>
        <time>2025-04-09T03:54:40.999Z</time>
      </trkpt>
      <trkpt lat="43.233279" lon="76.975889">
        <ele>1099.522864</ele>
        <time>2025-04-09T03:54:41.999Z</time>
      </trkpt>
      <trkpt lat="43.233297" lon="76.975898">
        <ele>1099.522864</ele>
        <time>2025-04-09T03:54:42.999Z</time>
      </trkpt>
      <trkpt lat="43.233316" lon="76.975906">
        <ele>1099.522864</ele>
        <time>2025-04-09T03:54:43.999Z</time>
      </trkpt>
      <trkpt lat="43.233336" lon="76.975912">
        <ele>1099.522864</ele>
        <time>2025-04-09T03:54:44.999Z</time>
      </trkpt>
      <trkpt lat="43.233356" lon="76.975915">
        <ele>1099.522864</ele>
        <time>2025-04-09T03:54:45.999Z</time>
      </trkpt>
      <trkpt lat="43.233376" lon="76.975917">
        <ele>1099.522864</ele>
        <time>2025-04-09T03:54:46.999Z</time>
      </trkpt>
      <trkpt lat="43.233397" lon="76.975916">
        <ele>1099.522864</ele>
        <time>2025-04-09T03:54:47.999Z</time>
      </trkpt>
      <trkpt lat="43.233416" lon="76.975913">
        <ele>1099.522864</ele>
        <time>2025-04-09T03:54:48.999Z</time>
      </trkpt>
      <trkpt lat="43.233433" lon="76.975909">
        <ele>1099.522864</ele>
        <time>2025-04-09T03:54:49.999Z</time>
      </trkpt>
      <trkpt lat="43.233448" lon="76.975905">
        <ele>1099.522864</ele>
        <time>2025-04-09T03:54:50.999Z</time>
      </trkpt>
      <trkpt lat="43.233458" lon="76.975901">
        <ele>1099.522864</ele>
        <time>2025-04-09T03:54:51.999Z</time>
      </trkpt>
      <trkpt lat="43.233466" lon="76.975897">
        <ele>1099.522864</ele>
        <time>2025-04-09T03:54:52.999Z</time>
      </trkpt>
      <trkpt lat="43.233470" lon="76.975894">
        <ele>1099.522864</ele>
        <time>2025-04-09T03:54:53.999Z</time>
      </trkpt>
      <trkpt lat="43.233471" lon="76.975892">
        <ele>1099.522864</ele>
        <time>2025-04-09T03:54:54.999Z</time>
      </trkpt>
      <trkpt lat="43.233470" lon="76.975891">
        <ele>1099.522864</ele>
        <time>2025-04-09T03:54:55.999Z</time>
      </trkpt>
      <trkpt lat="43.233469" lon="76.975891">
        <ele>1099.522864</ele>
        <time>2025-04-09T03:54:56.999Z</time>
      </trkpt>
      <trkpt lat="43.233468" lon="76.975891">
        <ele>1099.522864</ele>
        <time>2025-04-09T03:54:57.999Z</time>
      </trkpt>
      <trkpt lat="43.233466" lon="76.975891">
        <ele>1099.522864</ele>
        <time>2025-04-09T03:54:58.999Z</time>
      </trkpt>
    </trkseg>
  </trk>
</gpx>